{"type":"FeatureCollection","features":[{"type":"Feature","properties":{"display":"茂名","province":"广东省"},"geometry":{"coordinates":[110.939344,21.949117],"type":"Point"}},{"type":"Feature","properties":{"display":"阳江","province":"广东省"},"geometry":{"coordinates":[111.703588,22.030855],"type":"Point"}},{"type":"Feature","properties":{"display":"河源","province":"广东省"},"geometry":{"coordinates":[114.928081,23.914678],"type":"Point"}},{"type":"Feature","properties":{"display":"惠州","province":"广东省"},"geometry":{"coordinates":[114.321499,23.322339],"type":"Point"}},{"type":"Feature","properties":{"display":"江门","province":"广东省"},"geometry":{"coordinates":[112.721951,22.292053],"type":"Point"}},{"type":"Feature","properties":{"display":"珠海","province":"广东省"},"geometry":{"coordinates":[113.274613,22.112666],"type":"Point"}},{"type":"Feature","properties":{"display":"揭阳","province":"广东省"},"geometry":{"coordinates":[116.065096,23.372558],"type":"Point"}},{"type":"Feature","properties":{"display":"潮州","province":"广东省"},"geometry":{"coordinates":[116.778017,23.82326],"type":"Point"}},{"type":"Feature","properties":{"display":"黔南","province":"贵州省"},"geometry":{"coordinates":[107.668038,25.721597],"type":"Point"}},{"type":"Feature","properties":{"display":"黔东南","province":"贵州省"},"geometry":{"coordinates":[108.361122,26.661308],"type":"Point"}},{"type":"Feature","properties":{"display":"安顺","province":"贵州省"},"geometry":{"coordinates":[105.913477,25.919855],"type":"Point"}},{"type":"Feature","properties":{"display":"铜仁","province":"贵州省"},"geometry":{"coordinates":[108.391712,27.918533],"type":"Point"}},{"type":"Feature","properties":{"display":"池州","province":"安徽省"},"geometry":{"coordinates":[117.606198,30.429118],"type":"Point"}},{"type":"Feature","properties":{"display":"咸阳","province":"陕西省"},"geometry":{"coordinates":[108.418933,34.605687],"type":"Point"}},{"type":"Feature","properties":{"display":"宁波","province":"浙江省"},"geometry":{"coordinates":[121.500054,29.73032],"type":"Point"}},{"type":"Feature","properties":{"display":"承德","province":"河北省"},"geometry":{"coordinates":[117.411862,41.45782],"type":"Point"}},{"type":"Feature","properties":{"display":"葫芦岛","province":"辽宁省"},"geometry":{"coordinates":[120.064638,40.509692],"type":"Point"}},{"type":"Feature","properties":{"display":"临夏","province":"甘肃省"},"geometry":{"coordinates":[103.256469,35.597114],"type":"Point"}},{"type":"Feature","properties":{"display":"北海","province":"广西壮族自治区"},"geometry":{"coordinates":[109.370203,21.6646],"type":"Point"}},{"type":"Feature","properties":{"display":"阿拉善","province":"内蒙古自治区"},"geometry":{"coordinates":[101.803444,40.690353],"type":"Point"}}]}