{"type":"FeatureCollection","features":[{"type":"Feature","properties":{"display":"茂名","province":"广东省"},"geometry":{"coordinates":[[[[110.677742,21.521398],[110.735987,21.533348],[110.727403,21.573636],[110.747176,21.588741],[110.736217,21.623874],[110.761507,21.647969],[110.798216,21.631852],[110.795611,21.579582],[110.813697,21.583064],[110.822127,21.541974],[110.848031,21.527668],[110.856231,21.503714],[110.840674,21.493638],[110.867344,21.506125],[110.876004,21.49814],[110.870409,21.471125],[110.895316,21.460833],[110.880449,21.444856],[110.901907,21.425768],[110.929037,21.447912],[110.950112,21.443731],[110.977012,21.406785],[111.061313,21.449199],[111.290536,21.484204],[111.2818,21.446518],[111.250532,21.449574],[111.263483,21.412684],[111.329852,21.446787],[111.382502,21.495514],[111.452395,21.515182],[111.458909,21.534151],[111.44703,21.570904],[111.42151,21.573743],[111.416452,21.598061],[111.427718,21.614234],[111.416299,21.646898],[111.44067,21.69347],[111.431243,21.71857],[111.381275,21.734463],[111.388786,21.756239],[111.374301,21.774374],[111.423503,21.81374],[111.417218,21.850154],[111.40327,21.862183],[111.367864,21.862557],[111.362499,21.877044],[111.340044,21.874424],[111.320119,21.897836],[111.290077,21.907991],[111.283333,21.986797],[111.305941,22.011846],[111.285325,22.048369],[111.337515,22.118453],[111.327169,22.171326],[111.348091,22.181035],[111.346099,22.211488],[111.360507,22.233938],[111.42266,22.272643],[111.453468,22.270297],[111.465807,22.33004],[111.492247,22.333557],[111.517001,22.365309],[111.531102,22.358384],[111.600689,22.375537],[111.679089,22.45685],[111.678553,22.496397],[111.625673,22.510925],[111.619618,22.497302],[111.618315,22.533912],[111.59632,22.551362],[111.54459,22.517364],[111.545433,22.499324],[111.525201,22.480164],[111.486882,22.505551],[111.469409,22.490277],[111.480444,22.46015],[111.471325,22.441996],[111.421817,22.426662],[111.403347,22.479526],[111.413387,22.512628],[111.350084,22.506988],[111.338588,22.522951],[111.276972,22.491927],[111.272067,22.506136],[111.293909,22.547638],[111.326633,22.557267],[111.279271,22.592053],[111.219187,22.58583],[111.196732,22.61024],[111.174737,22.605773],[111.144235,22.625713],[111.127911,22.666169],[111.136878,22.685941],[111.108369,22.704328],[111.055642,22.648521],[111.027976,22.651551],[110.997091,22.631349],[110.959002,22.636506],[110.957699,22.616727],[110.941299,22.608113],[110.895853,22.613537],[110.887269,22.583543],[110.83324,22.584926],[110.799213,22.556841],[110.778674,22.585405],[110.760204,22.580777],[110.764496,22.565938],[110.748095,22.554767],[110.760817,22.516779],[110.740432,22.498845],[110.741351,22.464302],[110.68349,22.473405],[110.693529,22.448279],[110.713302,22.437471],[110.711539,22.369624],[110.741275,22.362007],[110.749398,22.329774],[110.78971,22.286661],[110.758748,22.274668],[110.720966,22.294123],[110.686019,22.248547],[110.653525,22.238203],[110.646857,22.223007],[110.678892,22.17266],[110.629077,22.14908],[110.598422,22.163431],[110.602484,22.183382],[110.560333,22.196396],[110.529448,22.154469],[110.489444,22.144599],[110.430816,22.206209],[110.414569,22.208555],[110.381078,22.164232],[110.348507,22.195862],[110.326052,22.164445],[110.364601,22.12523],[110.365674,22.098707],[110.350806,22.096999],[110.358853,22.075916],[110.347741,22.038972],[110.363528,22.005811],[110.352952,21.976595],[110.391117,21.950258],[110.442388,21.940854],[110.414799,21.932732],[110.413419,21.915686],[110.400391,21.913976],[110.413726,21.911304],[110.387592,21.890407],[110.398398,21.861755],[110.387362,21.852239],[110.350729,21.863947],[110.339387,21.806359],[110.357857,21.815451],[110.365137,21.807055],[110.348354,21.802509],[110.377246,21.806627],[110.386749,21.795556],[110.380312,21.784484],[110.381078,21.783361],[110.391041,21.776674],[110.389048,21.762124],[110.365367,21.748],[110.368739,21.721835],[110.351419,21.713647],[110.385753,21.674736],[110.40974,21.686619],[110.412346,21.675753],[110.382457,21.667456],[110.407058,21.648611],[110.396865,21.633137],[110.412653,21.616966],[110.413342,21.586063],[110.427214,21.600096],[110.443154,21.58692],[110.422692,21.562226],[110.475572,21.554136],[110.485152,21.513735],[110.497567,21.517111],[110.518183,21.480184],[110.538875,21.473859],[110.557038,21.512663],[110.575201,21.515772],[110.577194,21.499158],[110.599035,21.507304],[110.621184,21.481042],[110.645478,21.482918],[110.645095,21.501248],[110.657893,21.503607],[110.656973,21.490904],[110.683337,21.488332],[110.677742,21.521398]]],[[[110.508066,21.490583],[110.509063,21.479273],[110.490823,21.482811],[110.494118,21.474234],[110.514044,21.480774],[110.508066,21.490583]]],[[[110.379162,21.763675],[110.381078,21.783361],[110.373184,21.784163],[110.370042,21.770148],[110.379162,21.763675]]],[[[110.730775,21.501088],[110.708014,21.519362],[110.708474,21.500927],[110.730775,21.501088]]],[[[111.1847,21.37101],[111.194816,21.380075],[111.195659,21.391017],[111.1847,21.381953],[111.1847,21.37101]]],[[[110.484002,21.447108],[110.49044,21.456866],[110.484539,21.456705],[110.484002,21.447108]]]],"type":"MultiPolygon"}},{"type":"Feature","properties":{"display":"阳江","province":"广东省"},"geometry":{"coordinates":[[[[112.307824,21.704174],[112.304529,21.744415],[112.333574,21.770844],[112.32775,21.799193],[112.358558,21.834006],[112.351737,21.849298],[112.370054,21.861434],[112.343077,21.876723],[112.350818,21.901631],[112.331045,21.9595],[112.318477,21.976381],[112.276939,21.982524],[112.263757,22.001432],[112.225669,22.012219],[112.232029,22.019589],[112.221607,22.01788],[112.216779,22.03956],[112.231263,22.0528],[112.226818,22.063585],[112.185051,22.066841],[112.156541,22.095718],[112.126116,22.096572],[112.105884,22.135795],[112.034381,22.113437],[112.027254,22.127044],[112.051165,22.14684],[112.03668,22.168019],[112.051625,22.207542],[112.037906,22.215061],[112.037906,22.232178],[112.004262,22.248333],[112.010547,22.266193],[112.036604,22.262781],[112.061511,22.28357],[112.065036,22.324392],[112.081896,22.351086],[112.119985,22.35636],[112.119832,22.337766],[112.128185,22.349754],[112.147268,22.339098],[112.161523,22.400676],[112.142057,22.41548],[112.13286,22.405842],[112.086725,22.416226],[112.058828,22.451207],[112.012923,22.471755],[112.008861,22.491075],[111.983724,22.505391],[111.969546,22.546468],[111.998361,22.589287],[111.956517,22.633795],[111.900265,22.570512],[111.870836,22.571735],[111.821788,22.59769],[111.846925,22.612207],[111.859111,22.605401],[111.85344,22.624331],[111.871296,22.633529],[111.870836,22.65979],[111.835277,22.68897],[111.809756,22.656123],[111.814508,22.633263],[111.738023,22.570459],[111.713346,22.504699],[111.680315,22.4824],[111.679089,22.45685],[111.630884,22.402859],[111.590266,22.369784],[111.517001,22.365309],[111.492247,22.333557],[111.465807,22.33004],[111.453468,22.270297],[111.42266,22.272643],[111.360507,22.233938],[111.346099,22.211488],[111.348091,22.181035],[111.327169,22.171326],[111.337515,22.118453],[111.285325,22.048369],[111.305941,22.011846],[111.283333,21.986797],[111.294675,21.935885],[111.287241,21.924129],[111.290077,21.907991],[111.320119,21.897836],[111.340044,21.874424],[111.362499,21.877044],[111.367864,21.862557],[111.40327,21.862183],[111.417218,21.850154],[111.423503,21.81374],[111.374301,21.774374],[111.388786,21.756239],[111.381275,21.734463],[111.431243,21.71857],[111.44067,21.69347],[111.416299,21.646898],[111.427718,21.614234],[111.418291,21.578671],[111.44703,21.570904],[111.458909,21.534151],[111.452395,21.515182],[111.47577,21.50023],[111.539839,21.518987],[111.541755,21.506393],[111.560684,21.505429],[111.605977,21.529383],[111.650427,21.512288],[111.677403,21.529758],[111.676407,21.565815],[111.693727,21.590348],[111.758716,21.613913],[111.810293,21.604541],[111.830985,21.582849],[111.813665,21.57144],[111.812822,21.555047],[111.846772,21.567369],[111.862789,21.556976],[111.921494,21.599507],[111.972458,21.603256],[112.024955,21.629764],[112.022196,21.645988],[111.954525,21.667723],[111.955981,21.710543],[112.03645,21.761428],[112.136539,21.793844],[112.192331,21.789351],[112.197006,21.736657],[112.231646,21.729594],[112.240076,21.701606],[112.263068,21.69347],[112.307824,21.704174]]],[[[112.189879,21.558315],[112.186813,21.543314],[112.204823,21.548189],[112.189879,21.558315]]],[[[112.140601,21.601917],[112.150104,21.601863],[112.144816,21.613913],[112.140601,21.601917]]],[[[112.118146,21.633458],[112.129258,21.640526],[112.118146,21.642829],[112.118146,21.633458]]]],"type":"MultiPolygon"}},{"type":"Feature","properties":{"display":"河源","province":"广东省"},"geometry":{"coordinates":[[[115.419311,23.243785],[115.423909,23.277178],[115.459009,23.288554],[115.458396,23.312414],[115.497328,23.322465],[115.471348,23.327543],[115.475486,23.373658],[115.457017,23.38381],[115.454871,23.418119],[115.435558,23.43165],[115.440693,23.447981],[115.416858,23.484122],[115.418468,23.495956],[115.440616,23.500975],[115.435328,23.534356],[115.450349,23.555954],[115.428737,23.581138],[115.432722,23.63772],[115.452648,23.663363],[115.457093,23.696281],[115.445981,23.709572],[115.420231,23.696123],[115.407432,23.703349],[115.412567,23.723021],[115.382985,23.748173],[115.399385,23.768734],[115.387276,23.778223],[115.347961,23.75392],[115.317153,23.761617],[115.358461,23.792455],[115.354399,23.842411],[115.37647,23.851052],[115.371872,23.865223],[115.391875,23.881921],[115.408505,23.950585],[115.453261,23.967009],[115.445598,24.038311],[115.417778,24.068241],[115.44874,24.112781],[115.442302,24.124452],[115.481387,24.143167],[115.483763,24.123506],[115.500393,24.128395],[115.513192,24.099058],[115.529592,24.098479],[115.537409,24.108838],[115.509897,24.140381],[115.520856,24.143324],[115.503612,24.187575],[115.545303,24.170234],[115.538099,24.192777],[115.571437,24.204231],[115.570823,24.235751],[115.590826,24.242894],[115.550898,24.359914],[115.557948,24.386201],[115.583852,24.411276],[115.575805,24.441747],[115.593048,24.459733],[115.575728,24.461044],[115.57067,24.478398],[115.551511,24.469433],[115.554116,24.484427],[115.493266,24.498004],[115.483227,24.562722],[115.513882,24.576186],[115.506065,24.601485],[115.520779,24.628507],[115.559481,24.64301],[115.556186,24.68269],[115.523078,24.703049],[115.523691,24.717544],[115.507904,24.716497],[115.478705,24.761123],[115.41295,24.792869],[115.372562,24.774408],[115.358537,24.735176],[115.306654,24.758664],[115.278528,24.754113],[115.258908,24.728793],[115.18434,24.711421],[115.195146,24.691902],[115.125636,24.681486],[115.120731,24.66437],[115.104943,24.667825],[115.083255,24.700484],[115.054899,24.709904],[115.024857,24.669133],[115.003858,24.679183],[114.937414,24.651911],[114.936801,24.665417],[114.919634,24.667092],[114.89327,24.582367],[114.869053,24.562355],[114.854262,24.582524],[114.859243,24.597295],[114.846675,24.60248],[114.826366,24.588286],[114.781226,24.612954],[114.729879,24.608922],[114.738079,24.56508],[114.705202,24.526096],[114.686502,24.538568],[114.665197,24.583676],[114.624349,24.575662],[114.592468,24.537991],[114.546715,24.542812],[114.534147,24.559002],[114.42877,24.486262],[114.402023,24.498528],[114.391677,24.563455],[114.363858,24.582524],[114.308142,24.574143],[114.310518,24.558583],[114.273732,24.533695],[114.286607,24.500572],[114.310595,24.480757],[114.242004,24.426014],[114.254879,24.400155],[114.249208,24.362695],[114.278637,24.364951],[114.293581,24.352672],[114.272966,24.324856],[114.279326,24.303176],[114.266451,24.272776],[114.254649,24.266055],[114.272889,24.257495],[114.254802,24.256707],[114.274192,24.212742],[114.298026,24.195142],[114.292891,24.175069],[114.329831,24.126871],[114.352209,24.143219],[114.365161,24.132233],[114.419956,24.139329],[114.46387,24.110836],[114.479044,24.112939],[114.460574,24.169604],[114.474216,24.16624],[114.556065,24.245888],[114.591318,24.225981],[114.600055,24.174911],[114.558134,24.15063],[114.565568,24.136175],[114.554226,24.124295],[114.535833,24.124347],[114.533993,24.138856],[114.509469,24.106682],[114.489697,24.114043],[114.481267,24.086595],[114.437813,24.062192],[114.440725,24.033208],[114.425628,24.032998],[114.420416,24.019582],[114.398038,24.026],[114.389685,24.012741],[114.382481,23.932159],[114.34991,23.887925],[114.356347,23.869595],[114.33029,23.852948],[114.332666,23.808635],[114.348913,23.791453],[114.341556,23.7516],[114.368839,23.725499],[114.378649,23.744693],[114.388612,23.739262],[114.405395,23.708201],[114.421413,23.709942],[114.440112,23.687578],[114.473143,23.703349],[114.512688,23.688527],[114.557061,23.622204],[114.554609,23.590165],[114.57898,23.561498],[114.600591,23.555214],[114.606646,23.536838],[114.623583,23.529233],[114.625039,23.549406],[114.65554,23.562871],[114.661825,23.535623],[114.692173,23.532402],[114.698764,23.520624],[114.68267,23.493949],[114.697155,23.46061],[114.676079,23.45522],[114.632779,23.407865],[114.650712,23.396922],[114.652858,23.411882],[114.707501,23.40427],[114.693246,23.393538],[114.697461,23.366203],[114.719916,23.358588],[114.72758,23.327649],[114.75448,23.328812],[114.776628,23.313472],[114.768581,23.2794],[114.786821,23.266277],[114.786361,23.207101],[114.850353,23.165271],[114.868823,23.189841],[114.859933,23.211072],[114.91174,23.274532],[114.913043,23.338756],[114.953891,23.343727],[114.948066,23.329606],[114.976116,23.316858],[114.978032,23.294374],[114.992133,23.296755],[115.007154,23.332356],[115.056125,23.321195],[115.12234,23.368159],[115.157517,23.362342],[115.17637,23.381008],[115.235457,23.385343],[115.240822,23.376725],[115.265039,23.384445],[115.295618,23.357319],[115.306117,23.360597],[115.310792,23.307971],[115.334856,23.322412],[115.377313,23.302892],[115.401378,23.276437],[115.403447,23.250083],[115.419311,23.243785]]],"type":"Polygon"}},{"type":"Feature","properties":{"display":"惠州","province":"广东省"},"geometry":{"coordinates":[[[[114.514451,22.660747],[114.608178,22.695613],[114.59423,22.721172],[114.601741,22.730736],[114.685966,22.765212],[114.709647,22.787678],[114.75241,22.759741],[114.733941,22.719259],[114.728576,22.651285],[114.740915,22.638473],[114.747352,22.581628],[114.875184,22.590351],[114.883614,22.540243],[114.925305,22.551628],[114.924232,22.610878],[114.93772,22.637357],[115.02616,22.702149],[114.994432,22.754376],[114.999797,22.773551],[114.977725,22.776631],[114.944388,22.809397],[114.950135,22.834722],[114.931666,22.840456],[114.925075,22.868323],[114.941245,22.877452],[114.917794,22.907009],[115.047925,22.966848],[115.062333,22.994106],[115.085937,23.007733],[115.099349,22.996227],[115.110998,23.009589],[115.146864,22.991136],[115.180431,23.040337],[115.24588,23.061803],[115.262664,23.091426],[115.290253,23.095559],[115.283509,23.157433],[115.325277,23.159392],[115.342367,23.19413],[115.404443,23.21986],[115.409655,23.237963],[115.425289,23.236322],[115.403447,23.250083],[115.401378,23.276437],[115.377313,23.302892],[115.334856,23.322412],[115.310792,23.307971],[115.306117,23.360597],[115.295618,23.357319],[115.265039,23.384445],[115.17637,23.381008],[115.157517,23.362342],[115.12234,23.368159],[115.056125,23.321195],[115.007154,23.332356],[114.992133,23.296755],[114.978032,23.294374],[114.976116,23.316858],[114.948066,23.329606],[114.953891,23.343727],[114.913043,23.338756],[114.919097,23.314848],[114.898865,23.246643],[114.879629,23.241139],[114.859933,23.211072],[114.868823,23.189841],[114.850353,23.165271],[114.834413,23.171784],[114.802455,23.205566],[114.786361,23.207101],[114.786821,23.266277],[114.768581,23.2794],[114.776628,23.313472],[114.75448,23.328812],[114.72758,23.327649],[114.719916,23.358588],[114.697461,23.366203],[114.693246,23.393538],[114.707501,23.40427],[114.652858,23.411882],[114.650712,23.396922],[114.632779,23.407865],[114.676079,23.45522],[114.697155,23.46061],[114.68267,23.493949],[114.698764,23.520624],[114.692173,23.532402],[114.661825,23.535623],[114.65554,23.562871],[114.625039,23.549406],[114.623583,23.529233],[114.567637,23.570738],[114.55047,23.605315],[114.557061,23.622204],[114.512688,23.688527],[114.473143,23.703349],[114.440112,23.687578],[114.421413,23.709942],[114.405395,23.708201],[114.388612,23.739262],[114.378649,23.744693],[114.368839,23.725499],[114.355351,23.736046],[114.337954,23.770632],[114.348913,23.791453],[114.326918,23.8324],[114.33029,23.852948],[114.356347,23.869595],[114.34991,23.887925],[114.331517,23.900512],[114.303161,23.891454],[114.28814,23.90541],[114.236716,23.910676],[114.271816,23.959482],[114.238479,23.941899],[114.201999,23.941267],[114.174333,23.959429],[114.158162,23.939846],[114.117008,23.929737],[114.075624,23.924366],[114.056771,23.935844],[114.036232,23.901776],[114.057767,23.846784],[114.035312,23.813378],[114.047728,23.803312],[114.037228,23.793509],[114.05999,23.775851],[114.038454,23.771212],[114.02489,23.752549],[114.009945,23.762988],[114.013087,23.777959],[113.976071,23.757716],[113.972853,23.739262],[113.920049,23.729454],[113.881884,23.685151],[113.847857,23.679348],[113.839963,23.655449],[113.818811,23.656188],[113.827778,23.648009],[113.817432,23.623471],[113.859582,23.60996],[113.864027,23.587368],[113.852838,23.570579],[113.871384,23.541327],[113.911543,23.504144],[113.946643,23.492522],[113.931162,23.483066],[113.938749,23.476726],[113.981743,23.472129],[113.955456,23.466053],[113.952774,23.442907],[113.98795,23.431439],[113.986801,23.405591],[114.000442,23.39338],[113.982049,23.379369],[114.000902,23.346636],[113.984195,23.330505],[113.996687,23.297443],[113.958445,23.314953],[113.958905,23.33262],[113.939285,23.342934],[113.895985,23.34505],[113.889394,23.334154],[113.890314,23.282681],[113.877209,23.264213],[113.895142,23.253523],[113.903802,23.212554],[113.8838,23.191694],[113.902116,23.177186],[113.895679,23.164529],[113.858739,23.157221],[113.844715,23.125599],[113.894836,23.111295],[113.970554,23.113308],[114.010252,23.083425],[114.065891,23.101441],[114.088959,23.094182],[114.102217,23.058623],[114.150269,23.024698],[114.124442,22.994],[114.158546,22.978303],[114.182303,22.995432],[114.212498,22.987796],[114.223841,22.963719],[114.211349,22.953959],[114.213035,22.928444],[114.259171,22.906054],[114.251737,22.884351],[114.231198,22.880318],[114.234953,22.792989],[114.26147,22.781783],[114.284844,22.808282],[114.353128,22.806636],[114.342706,22.783642],[114.355964,22.764893],[114.388075,22.757191],[114.404706,22.781305],[114.41827,22.766327],[114.403403,22.723935],[114.442028,22.697579],[114.431912,22.660907],[114.453447,22.669943],[114.514451,22.660747]]],[[[114.638144,22.585724],[114.658913,22.560512],[114.657763,22.575565],[114.638144,22.585724]]],[[[114.628947,22.448492],[114.652092,22.454507],[114.657227,22.462439],[114.620287,22.466325],[114.628947,22.448492]]],[[[114.609941,22.670262],[114.61293,22.661704],[114.617988,22.669518],[114.609941,22.670262]]],[[[114.845908,22.516779],[114.84062,22.502038],[114.855641,22.513799],[114.845908,22.516779]]],[[[114.649409,22.675152],[114.648107,22.664734],[114.653548,22.664043],[114.649409,22.675152]]],[[[114.72689,22.577693],[114.720836,22.588543],[114.719226,22.580246],[114.72689,22.577693]]],[[[114.641286,22.429378],[114.650482,22.428739],[114.659602,22.444073],[114.654238,22.445138],[114.641286,22.429378]]]],"type":"MultiPolygon"}},{"type":"Feature","properties":{"display":"江门","province":"广东省"},"geometry":{"coordinates":[[[[112.165431,22.385018],[112.144433,22.358597],[112.147268,22.339098],[112.128185,22.349754],[112.119832,22.337766],[112.119985,22.35636],[112.081896,22.351086],[112.065036,22.324392],[112.061511,22.28357],[112.036604,22.262781],[112.010547,22.266193],[112.004262,22.248333],[112.037906,22.232178],[112.037906,22.215061],[112.051625,22.207542],[112.03668,22.168019],[112.051165,22.14684],[112.027254,22.127044],[112.034381,22.113437],[112.105884,22.135795],[112.126116,22.096572],[112.156541,22.095718],[112.185051,22.066841],[112.226818,22.063585],[112.231263,22.0528],[112.216779,22.03956],[112.221607,22.01788],[112.232029,22.019589],[112.225669,22.012219],[112.263757,22.001432],[112.276939,21.982524],[112.318477,21.976381],[112.331045,21.9595],[112.350818,21.901631],[112.343077,21.876723],[112.370054,21.861434],[112.351737,21.849298],[112.358558,21.834006],[112.32775,21.799193],[112.333574,21.770844],[112.304529,21.744415],[112.303456,21.71445],[112.315105,21.700749],[112.409522,21.728417],[112.439411,21.803685],[112.47773,21.795663],[112.535591,21.754099],[112.639358,21.756025],[112.800374,21.924824],[112.840915,21.920496],[112.885135,21.852185],[112.911345,21.838979],[112.944529,21.84208],[112.989669,21.86956],[113.04753,21.956455],[113.054198,22.003835],[113.032279,22.045753],[113.035498,22.077357],[113.087152,22.126137],[113.106388,22.209355],[113.168541,22.238417],[113.193065,22.358171],[113.169154,22.377987],[113.165399,22.40025],[113.181646,22.40238],[113.192145,22.381662],[113.212224,22.398599],[113.262652,22.392048],[113.240121,22.476172],[113.187087,22.539924],[113.185095,22.574289],[113.157045,22.614228],[113.17061,22.651392],[113.161414,22.673717],[113.102096,22.698536],[113.059562,22.801219],[112.980396,22.802759],[112.923454,22.856274],[112.844594,22.835306],[112.852947,22.809609],[112.812099,22.791714],[112.822369,22.784545],[112.803899,22.752145],[112.807961,22.72877],[112.755771,22.692425],[112.717989,22.691681],[112.708256,22.71028],[112.69538,22.695613],[112.709022,22.729567],[112.69653,22.75905],[112.680436,22.747045],[112.701128,22.728398],[112.683885,22.733923],[112.680053,22.713999],[112.665109,22.724041],[112.664649,22.713043],[112.660127,22.727335],[112.646256,22.726698],[112.620965,22.70114],[112.604182,22.706241],[112.587321,22.696357],[112.600273,22.688439],[112.577359,22.656388],[112.546474,22.642248],[112.535591,22.67765],[112.560038,22.695826],[112.523176,22.728079],[112.47704,22.715912],[112.52172,22.607262],[112.463552,22.584873],[112.435732,22.619971],[112.435272,22.661279],[112.419562,22.664202],[112.400402,22.635921],[112.405077,22.618216],[112.380247,22.594978],[112.377411,22.552479],[112.344533,22.564342],[112.359631,22.545457],[112.33641,22.545457],[112.323918,22.554554],[112.328133,22.569874],[112.309127,22.572427],[112.301233,22.515289],[112.25732,22.500229],[112.262531,22.480803],[112.235938,22.427035],[112.243678,22.408238],[112.196163,22.404936],[112.189189,22.36467],[112.165431,22.385018]]],[[[112.77539,21.564101],[112.817311,21.59008],[112.798918,21.610861],[112.821066,21.653697],[112.805432,21.68132],[112.811256,21.703746],[112.832945,21.736389],[112.875785,21.750354],[112.876015,21.772716],[112.840839,21.776674],[112.800067,21.759502],[112.781368,21.768329],[112.782287,21.737994],[112.724196,21.719694],[112.707872,21.698501],[112.713467,21.673344],[112.734542,21.666599],[112.754621,21.682658],[112.780295,21.671524],[112.73094,21.613752],[112.735385,21.602506],[112.756001,21.611932],[112.753548,21.583546],[112.76696,21.588099],[112.761289,21.573743],[112.77539,21.564101]]],[[[112.530993,21.583921],[112.562414,21.59008],[112.544788,21.600631],[112.568622,21.619429],[112.621502,21.606737],[112.637672,21.632655],[112.659821,21.630942],[112.665645,21.642507],[112.639895,21.6545],[112.640431,21.673719],[112.665952,21.683943],[112.664036,21.713754],[112.610006,21.702676],[112.592303,21.693042],[112.589237,21.676128],[112.559808,21.665475],[112.570461,21.64572],[112.535055,21.628479],[112.530993,21.583921]]],[[[112.435426,21.663548],[112.456348,21.648772],[112.466081,21.686673],[112.458417,21.690098],[112.435426,21.663548]]],[[[112.6799,21.707493],[112.690092,21.699893],[112.686184,21.713701],[112.6799,21.707493]]],[[[112.883449,21.593776],[112.902532,21.602292],[112.903222,21.610861],[112.861991,21.60663],[112.883449,21.593776]]],[[[113.025459,21.847801],[113.04684,21.854752],[113.045844,21.882763],[113.007372,21.869186],[113.025459,21.847801]]],[[[112.656372,21.595704],[112.667025,21.607862],[112.65369,21.60588],[112.656372,21.595704]]],[[[112.587934,21.58617],[112.60035,21.591741],[112.59989,21.599185],[112.581727,21.600578],[112.587934,21.58617]]],[[[112.674228,21.610646],[112.672312,21.617608],[112.664802,21.612467],[112.674228,21.610646]]],[[[112.794013,21.568922],[112.814245,21.569458],[112.818077,21.579635],[112.794013,21.568922]]]],"type":"MultiPolygon"}},{"type":"Feature","properties":{"display":"珠海","province":"广东省"},"geometry":{"coordinates":[[[[113.262652,22.392048],[113.212224,22.398599],[113.192145,22.381662],[113.181646,22.40238],[113.165399,22.40025],[113.169154,22.377987],[113.193065,22.358171],[113.185478,22.294762],[113.168541,22.238417],[113.106388,22.209355],[113.087152,22.126137],[113.10156,22.048262],[113.143097,22.011846],[113.151451,21.979853],[113.218126,21.904998],[113.26679,21.871645],[113.3199,21.909701],[113.33768,21.969009],[113.442214,22.009496],[113.459764,22.043724],[113.482679,22.054669],[113.530654,22.07362],[113.565754,22.07266],[113.554641,22.142411],[113.534562,22.1741],[113.538241,22.209409],[113.597175,22.234951],[113.590124,22.29391],[113.616948,22.31885],[113.604762,22.339897],[113.62806,22.349274],[113.669904,22.435607],[113.624841,22.442955],[113.608901,22.408824],[113.585986,22.40041],[113.537168,22.416332],[113.49586,22.407546],[113.490342,22.34075],[113.504137,22.324286],[113.470493,22.310377],[113.512797,22.249986],[113.430565,22.201302],[113.352395,22.249133],[113.32036,22.329561],[113.262652,22.392048]]],[[[114.051789,22.086324],[114.047651,22.108954],[114.026959,22.10319],[114.034546,22.091342],[114.051789,22.086324]]],[[[114.222615,22.018948],[114.311361,22.041428],[114.32301,22.064172],[114.239781,22.035502],[114.222615,22.018948]]],[[[113.714584,22.007413],[113.729988,22.016385],[113.723014,22.02872],[113.702628,22.029308],[113.695731,22.021565],[113.714584,22.007413]]],[[[113.830767,21.996625],[113.831763,21.98888],[113.842339,21.998868],[113.830767,21.996625]]],[[[114.009945,21.853148],[114.016536,21.863145],[114.031557,21.873623],[114.010252,21.86368],[114.009945,21.853148]]],[[[113.815056,22.157136],[113.808542,22.174207],[113.799575,22.166472],[113.815056,22.157136]]],[[[113.999293,22.045273],[114.001055,22.035929],[114.005424,22.045112],[113.999293,22.045273]]],[[[113.765165,21.961958],[113.778653,21.978357],[113.772905,21.998761],[113.742403,21.987812],[113.765165,21.961958]]],[[[114.034469,21.886077],[114.04926,21.88271],[114.063592,21.892384],[114.058687,21.902326],[114.034469,21.886077]]],[[[113.922962,22.048583],[113.924111,22.032778],[113.937753,22.036249],[113.922962,22.048583]]],[[[113.143251,21.831707],[113.159881,21.851864],[113.187624,21.848389],[113.205787,21.871324],[113.18088,21.862183],[113.167698,21.876563],[113.151221,21.864963],[113.144707,21.873516],[113.143251,21.831707]]],[[[113.722937,21.922152],[113.743476,21.928244],[113.751677,21.940747],[113.743093,21.950738],[113.717956,21.951273],[113.722937,21.922152]]],[[[113.88426,22.112583],[113.869622,22.11301],[113.880581,22.10746],[113.88426,22.112583]]],[[[113.828238,22.117919],[113.83958,22.130993],[113.828544,22.156283],[113.818045,22.153295],[113.816435,22.132327],[113.828238,22.117919]]],[[[114.18989,21.986423],[114.220239,21.989842],[114.223841,22.007787],[114.18192,22.010938],[114.18989,21.986423]]],[[[113.165399,21.953463],[113.172373,21.941068],[113.172066,21.954745],[113.165399,21.953463]]],[[[114.153947,21.975099],[114.17234,21.999776],[114.124212,21.985248],[114.123675,21.97996],[114.153947,21.975099]]],[[[113.150455,21.937915],[113.127617,21.910395],[113.125164,21.896126],[113.156202,21.919587],[113.150455,21.937915]]],[[[113.67136,22.045433],[113.670211,22.033419],[113.666532,22.02338],[113.675805,22.029361],[113.67136,22.045433]]],[[[113.683163,21.938824],[113.709449,21.944968],[113.70669,21.957203],[113.692819,21.962973],[113.683163,21.938824]]],[[[113.901733,22.114184],[113.890161,22.122775],[113.886405,22.111249],[113.901733,22.114184]]],[[[113.707687,22.143532],[113.707993,22.134728],[113.722094,22.141878],[113.707687,22.143532]]],[[[114.007493,22.026958],[114.017992,22.028346],[114.013471,22.038225],[114.007493,22.026958]]],[[[113.702705,22.101696],[113.700866,22.094864],[113.711059,22.091769],[113.702705,22.101696]]],[[[114.126664,21.961744],[114.142835,21.965484],[114.139003,21.970345],[114.126664,21.961744]]],[[[113.576866,22.212075],[113.576176,22.201036],[113.586523,22.201036],[113.590738,22.208982],[113.576866,22.212075]]]],"type":"MultiPolygon"}},{"type":"Feature","properties":{"display":"揭阳","province":"广东省"},"geometry":{"coordinates":[[[116.552551,23.105891],[116.445488,23.093281],[116.426865,23.063393],[116.3805,23.039807],[116.368314,23.05751],[116.346703,23.05857],[116.327543,23.09646],[116.29137,23.099162],[116.29183,23.110501],[116.244545,23.140431],[116.252362,23.176286],[116.262325,23.175174],[116.252745,23.191536],[116.269222,23.204984],[116.259719,23.216842],[116.294129,23.239815],[116.308997,23.296067],[116.328846,23.299559],[116.319573,23.332303],[116.348848,23.335794],[116.354903,23.347324],[116.34563,23.408182],[116.322868,23.421767],[116.316891,23.442273],[116.350764,23.449619],[116.377051,23.500658],[116.41491,23.510271],[116.426482,23.468642],[116.482581,23.500552],[116.491164,23.478734],[116.465721,23.442485],[116.523429,23.437517],[116.544887,23.424356],[116.568339,23.378258],[116.591177,23.426524],[116.580294,23.461139],[116.630108,23.429378],[116.633557,23.45057],[116.619762,23.466423],[116.559908,23.482432],[116.543661,23.505623],[116.544811,23.528546],[116.570638,23.548614],[116.567036,23.569207],[116.526264,23.590165],[116.533545,23.617296],[116.514156,23.655924],[116.474534,23.655924],[116.470319,23.669589],[116.444722,23.6698],[116.43154,23.690637],[116.404104,23.694382],[116.37161,23.717431],[116.335437,23.773953],[116.271215,23.757294],[116.233126,23.718169],[116.227684,23.728821],[116.214119,23.71896],[116.214349,23.702558],[116.181089,23.68552],[116.17764,23.657296],[116.191358,23.641361],[116.165455,23.616082],[116.09878,23.622574],[116.056476,23.646374],[116.021223,23.644685],[116.006585,23.675497],[115.985816,23.676974],[115.954471,23.64516],[115.897836,23.620093],[115.86036,23.65756],[115.83461,23.660884],[115.800047,23.615502],[115.812309,23.578974],[115.786175,23.517455],[115.751612,23.52749],[115.723179,23.514656],[115.687389,23.557538],[115.639797,23.528758],[115.642096,23.513863],[115.622094,23.507102],[115.606537,23.471865],[115.682868,23.407759],[115.671602,23.38344],[115.676813,23.354992],[115.777668,23.383651],[115.819666,23.335741],[115.802039,23.324422],[115.797671,23.286596],[115.831621,23.258128],[115.758126,23.244949],[115.752148,23.193601],[115.73866,23.211125],[115.725631,23.183805],[115.833154,23.122897],[115.85147,23.098791],[115.864345,23.117865],[115.908795,23.125652],[115.939833,23.082206],[115.937688,23.067156],[115.966963,23.04728],[115.950716,23.024327],[115.937688,23.030424],[115.923586,23.017594],[115.942209,23.006195],[115.959989,23.017435],[115.941213,22.987053],[115.943819,22.956293],[115.963515,22.94961],[115.973247,22.969818],[115.977846,22.951838],[115.967116,22.943775],[115.983287,22.925897],[116.005665,22.945632],[116.080234,22.915764],[116.109969,22.891143],[116.135106,22.900589],[116.156105,22.886208],[116.172505,22.893425],[116.16806,22.913695],[116.181549,22.92611],[116.223929,22.926852],[116.226918,22.914491],[116.302789,22.951519],[116.382646,22.919213],[116.45024,22.936773],[116.505572,22.930884],[116.540979,22.994583],[116.576002,23.017117],[116.563204,23.025812],[116.565809,23.08316],[116.552551,23.105891]]],"type":"Polygon"}},{"type":"Feature","properties":{"display":"潮州","province":"广东省"},"geometry":{"coordinates":[[[116.91704,23.531662],[116.963405,23.506997],[117.010231,23.502665],[117.044795,23.539689],[117.09959,23.537577],[117.192935,23.561656],[117.192552,23.629593],[117.147489,23.653813],[117.124881,23.646057],[117.115454,23.665263],[117.087941,23.669325],[117.053225,23.698391],[117.047783,23.758665],[117.020041,23.800729],[117.022416,23.838776],[117.01207,23.855266],[116.962026,23.861377],[116.979269,23.884449],[116.954745,23.920417],[116.980189,23.941056],[116.981339,23.996692],[116.954439,24.005954],[116.939801,24.03305],[116.952446,24.054723],[116.929761,24.065453],[116.926619,24.098585],[116.934896,24.126923],[116.998659,24.17901],[116.956125,24.216998],[116.917116,24.232809],[116.896577,24.218784],[116.904548,24.202813],[116.884315,24.193671],[116.878568,24.167817],[116.867072,24.163717],[116.847836,24.182689],[116.831819,24.161878],[116.809594,24.169183],[116.780241,24.147319],[116.76637,24.124032],[116.76752,24.074657],[116.75748,24.082125],[116.734642,24.053619],[116.71257,24.062455],[116.700155,24.050094],[116.708815,24.019161],[116.690422,24.005375],[116.68797,23.981062],[116.646969,23.994429],[116.637312,23.968851],[116.610796,23.968483],[116.62574,23.950006],[116.604205,23.950322],[116.604741,23.910781],[116.590487,23.900933],[116.557992,23.907253],[116.514386,23.866698],[116.496989,23.869226],[116.525881,23.8324],[116.509864,23.827764],[116.516761,23.802679],[116.496146,23.752496],[116.464954,23.755238],[116.436215,23.780331],[116.416903,23.777854],[116.368468,23.73304],[116.377741,23.712209],[116.43154,23.690637],[116.444722,23.6698],[116.448477,23.677766],[116.474534,23.655924],[116.514156,23.655924],[116.533545,23.617296],[116.526264,23.590165],[116.567036,23.569207],[116.570638,23.548614],[116.544811,23.528546],[116.543661,23.505623],[116.559908,23.482432],[116.619762,23.466423],[116.633557,23.45057],[116.630108,23.429378],[116.702608,23.438204],[116.717935,23.471072],[116.70483,23.517561],[116.70621,23.542541],[116.719391,23.552522],[116.702991,23.574433],[116.71303,23.597925],[116.738934,23.60162],[116.761389,23.573958],[116.785223,23.579554],[116.795799,23.610488],[116.827527,23.611807],[116.821319,23.635609],[116.830976,23.645793],[116.874812,23.616082],[116.900639,23.61946],[116.91704,23.531662]]],"type":"Polygon"}},{"type":"Feature","properties":{"display":"黔南","province":"贵州省"},"geometry":{"coordinates":[[[[106.501286,26.25741],[106.36199,26.281863],[106.360791,26.254122],[106.337405,26.222343],[106.319056,26.222343],[106.297829,26.253195],[106.257414,26.242449],[106.243262,26.22452],[106.273604,26.223084],[106.299448,26.199499],[106.284517,26.191853],[106.275463,26.143878],[106.256814,26.129829],[106.276302,26.128624],[106.286676,26.102145],[106.269586,26.089807],[106.256634,26.102191],[106.245601,26.093054],[106.226832,26.03237],[106.276602,26.020072],[106.303226,26.002759],[106.31246,25.978898],[106.287096,25.963204],[106.289434,25.938545],[106.276362,25.937802],[106.277382,25.923404],[106.297949,25.912999],[106.273364,25.858961],[106.243202,25.831538],[106.259273,25.744438],[106.255375,25.728202],[106.231989,25.714522],[106.24692,25.698189],[106.308923,25.728295],[106.301787,25.697211],[106.326552,25.672404],[106.401806,25.650711],[106.436525,25.67785],[106.488934,25.646846],[106.470705,25.601863],[106.433047,25.560404],[106.435206,25.528997],[106.417217,25.496883],[106.397729,25.486953],[106.39611,25.45534],[106.410861,25.452776],[106.419556,25.430949],[106.39527,25.418309],[106.391493,25.400675],[106.424353,25.389944],[106.423633,25.32624],[106.456733,25.323766],[106.483297,25.29085],[106.506383,25.21873],[106.446299,25.176204],[106.47838,25.158815],[106.525931,25.099199],[106.522573,25.05986],[106.551296,25.082829],[106.590632,25.087787],[106.640522,25.135066],[106.645019,25.164846],[106.691131,25.179242],[106.722433,25.161854],[106.764647,25.183121],[106.798107,25.170455],[106.852734,25.186954],[106.888292,25.182186],[106.912997,25.243024],[106.933265,25.250451],[106.976079,25.232933],[106.995867,25.239613],[106.987472,25.255776],[107.013736,25.275346],[107.014276,25.344818],[106.986933,25.359753],[106.963727,25.437339],[106.996467,25.442702],[107.019073,25.497395],[107.070102,25.511752],[107.064526,25.559518],[107.185233,25.57834],[107.211197,25.609175],[107.228647,25.60489],[107.237641,25.551644],[107.328666,25.494552],[107.321231,25.484575],[107.332744,25.446713],[107.308398,25.433141],[107.314874,25.402634],[107.364644,25.394983],[107.375798,25.412058],[107.42089,25.39307],[107.409138,25.347152],[107.432703,25.289122],[107.481574,25.300188],[107.490089,25.2767],[107.472279,25.21373],[107.513115,25.21658],[107.518331,25.207609],[107.558927,25.246901],[107.599402,25.250965],[107.593766,25.262829],[107.605639,25.255215],[107.631963,25.310133],[107.659666,25.316296],[107.6689,25.307472],[107.658347,25.293371],[107.661885,25.258952],[107.696244,25.219851],[107.694625,25.197889],[107.742116,25.240221],[107.762144,25.228962],[107.759985,25.188636],[107.789488,25.154748],[107.762684,25.124499],[107.76898,25.117531],[107.819529,25.129174],[107.841896,25.115941],[107.872417,25.141611],[107.928604,25.155824],[108.001939,25.196534],[108.080612,25.193777],[108.114911,25.210226],[108.13374,25.234381],[108.143334,25.269788],[108.135958,25.297854],[108.152088,25.324419],[108.136618,25.343138],[108.152148,25.353732],[108.155267,25.377953],[108.142794,25.390644],[108.18255,25.391577],[108.193284,25.405527],[108.157605,25.439018],[108.192624,25.459071],[108.221407,25.450071],[108.225844,25.426985],[108.252048,25.430483],[108.236098,25.449371],[108.240715,25.461915],[108.299239,25.501125],[108.305416,25.516227],[108.283109,25.546239],[108.286707,25.567905],[108.260623,25.588449],[108.246831,25.585887],[108.246951,25.620678],[108.237297,25.628501],[108.217149,25.611271],[108.181711,25.616487],[108.186208,25.642796],[108.1657,25.65653],[108.158505,25.702656],[108.09932,25.679246],[108.097282,25.740949],[108.107895,25.752811],[108.08259,25.782904],[108.093084,25.811408],[108.124025,25.831026],[108.110114,25.845761],[108.151609,25.885542],[108.137877,25.915136],[108.167739,25.937059],[108.167739,25.954939],[108.19862,25.954382],[108.223325,25.973187],[108.218228,26.011161],[108.240715,26.032138],[108.238436,26.044621],[108.226324,26.041558],[108.228722,26.070139],[108.175774,26.035015],[108.162222,26.069629],[108.170257,26.079556],[108.151849,26.096208],[108.112992,26.073386],[108.014292,26.090271],[107.963442,26.075381],[107.957386,26.060072],[107.953249,26.078675],[107.940416,26.078211],[107.906417,26.124033],[107.886929,26.116707],[107.860365,26.140262],[107.848612,26.137202],[107.840637,26.098852],[107.815752,26.10015],[107.763044,26.170904],[107.746074,26.179062],[107.737979,26.167798],[107.741157,26.213679],[107.779714,26.310061],[107.722088,26.317329],[107.647493,26.279918],[107.624048,26.334456],[107.587949,26.3619],[107.559946,26.367546],[107.533742,26.349544],[107.518331,26.411867],[107.506219,26.41936],[107.447934,26.405252],[107.413695,26.378142],[107.306779,26.428934],[107.301922,26.441975],[107.35577,26.487285],[107.318472,26.516449],[107.33832,26.551889],[107.402541,26.539692],[107.398044,26.553413],[107.426827,26.551334],[107.425687,26.565794],[107.449073,26.579143],[107.466883,26.577434],[107.462505,26.547361],[107.479055,26.54713],[107.489369,26.56487],[107.503281,26.55212],[107.588069,26.612163],[107.588009,26.591244],[107.60312,26.584039],[107.610556,26.609254],[107.622549,26.611932],[107.668781,26.572954],[107.73564,26.573831],[107.745114,26.587318],[107.699782,26.652835],[107.687669,26.712548],[107.709076,26.752632],[107.76832,26.803212],[107.763763,26.824414],[107.733062,26.827318],[107.740018,26.842019],[107.690787,26.866486],[107.691807,26.84589],[107.648393,26.835844],[107.634062,26.844784],[107.645155,26.865472],[107.600002,26.909738],[107.630404,26.956704],[107.662844,26.971986],[107.638559,27.049241],[107.658827,27.07771],[107.676996,27.072927],[107.673758,27.092562],[107.704219,27.135452],[107.678795,27.187422],[107.687429,27.191833],[107.671659,27.209242],[107.651751,27.207405],[107.666382,27.234593],[107.646474,27.247863],[107.656308,27.267008],[107.556588,27.257872],[107.566662,27.225408],[107.55347,27.216637],[107.519711,27.244144],[107.524628,27.207864],[107.511496,27.203454],[107.492007,27.230276],[107.461066,27.240057],[107.458488,27.268064],[107.50418,27.315476],[107.498304,27.364059],[107.434802,27.372682],[107.419511,27.342546],[107.401762,27.363463],[107.375978,27.36649],[107.376217,27.388],[107.400503,27.405699],[107.399124,27.417803],[107.376217,27.442877],[107.35541,27.444527],[107.359368,27.465654],[107.308998,27.462446],[107.266963,27.476148],[107.266604,27.438477],[107.244777,27.415694],[107.248615,27.403544],[107.200763,27.355803],[107.202982,27.318045],[107.138401,27.245154],[107.155791,27.23418],[107.236742,27.241068],[107.262406,27.216269],[107.258688,27.180623],[107.180496,27.145655],[107.190869,27.115043],[107.174259,27.092976],[107.166644,27.040916],[107.167004,27.025826],[107.192249,27.026655],[107.198365,27.008435],[107.236082,26.996563],[107.250533,26.963194],[107.279196,26.86409],[107.266064,26.803258],[107.255271,26.792286],[107.216654,26.811924],[107.130546,26.820266],[107.0746,26.802797],[107.015895,26.755122],[106.982076,26.752678],[106.966365,26.731139],[106.982136,26.726388],[106.965646,26.722144],[106.972601,26.690356],[106.951494,26.684495],[106.948736,26.656159],[106.95761,26.660128],[106.962048,26.647342],[106.896687,26.63871],[106.872942,26.623152],[106.911618,26.61304],[106.916115,26.596739],[106.840981,26.567272],[106.833605,26.556093],[106.851475,26.540292],[106.843379,26.517465],[106.805302,26.48072],[106.829048,26.453073],[106.812678,26.44794],[106.813338,26.430044],[106.784735,26.426806],[106.757032,26.391883],[106.778679,26.374163],[106.833605,26.386609],[106.82617,26.348156],[106.785095,26.313023],[106.840981,26.304227],[106.874381,26.314042],[106.868384,26.29793],[106.886074,26.272138],[106.858191,26.243931],[106.886194,26.213679],[106.858191,26.186894],[106.835764,26.183418],[106.797927,26.223316],[106.794989,26.269267],[106.753134,26.265098],[106.742041,26.288299],[106.722792,26.276908],[106.688133,26.291726],[106.649157,26.268201],[106.629429,26.270193],[106.629489,26.235037],[106.591472,26.219887],[106.567486,26.233276],[106.500747,26.224335],[106.513219,26.24898],[106.500627,26.244904],[106.501286,26.25741]]],[[[106.224374,26.023924],[106.215199,26.032741],[106.211901,26.021464],[106.224374,26.023924]]]],"type":"MultiPolygon"}},{"type":"Feature","properties":{"display":"黔东南","province":"贵州省"},"geometry":{"coordinates":[[[[108.004398,27.316852],[108.011833,27.274583],[108.039716,27.258102],[108.020708,27.229771],[107.965901,27.214937],[107.971298,27.199183],[107.95169,27.192338],[107.945154,27.160269],[107.956067,27.14878],[107.908935,27.147356],[107.88483,27.15889],[107.881952,27.142208],[107.862703,27.141565],[107.85119,27.16445],[107.819469,27.159028],[107.846093,27.183196],[107.832901,27.192705],[107.760405,27.191649],[107.780973,27.209242],[107.772938,27.21806],[107.684431,27.235328],[107.666382,27.234593],[107.651751,27.207405],[107.671659,27.209242],[107.687429,27.191833],[107.678795,27.187422],[107.704219,27.135452],[107.673758,27.092562],[107.676996,27.072927],[107.658827,27.07771],[107.638559,27.049241],[107.662844,26.971986],[107.630404,26.956704],[107.600002,26.909738],[107.645155,26.865472],[107.634062,26.844784],[107.648393,26.835844],[107.691807,26.84589],[107.690787,26.866486],[107.740018,26.842019],[107.733062,26.827318],[107.763763,26.824414],[107.761844,26.792793],[107.709076,26.752632],[107.687669,26.712548],[107.699782,26.652835],[107.745114,26.587318],[107.73564,26.573831],[107.668781,26.572954],[107.622549,26.611932],[107.610556,26.609254],[107.60312,26.584039],[107.588009,26.591244],[107.588069,26.612163],[107.503281,26.55212],[107.489369,26.56487],[107.479055,26.54713],[107.462505,26.547361],[107.466883,26.577434],[107.449073,26.579143],[107.425687,26.565794],[107.426827,26.551334],[107.398044,26.553413],[107.402541,26.539692],[107.33832,26.551889],[107.318472,26.516449],[107.35577,26.487285],[107.301922,26.441975],[107.33964,26.406085],[107.413695,26.378142],[107.447934,26.405252],[107.506219,26.41936],[107.518331,26.411867],[107.533742,26.349544],[107.559946,26.367546],[107.587949,26.3619],[107.624048,26.334456],[107.647493,26.279918],[107.722088,26.317329],[107.779714,26.310061],[107.741157,26.213679],[107.737979,26.167798],[107.746074,26.179062],[107.763044,26.170904],[107.815752,26.10015],[107.840637,26.098852],[107.848612,26.137202],[107.860365,26.140262],[107.886929,26.116707],[107.906417,26.124033],[107.940416,26.078211],[107.953249,26.078675],[107.957386,26.060072],[107.963442,26.075381],[108.014292,26.090271],[108.112992,26.073386],[108.151849,26.096208],[108.170257,26.079556],[108.162222,26.069629],[108.175774,26.035015],[108.228722,26.070139],[108.226324,26.041558],[108.238436,26.044621],[108.240715,26.032138],[108.218228,26.011161],[108.223325,25.973187],[108.19862,25.954382],[108.167739,25.954939],[108.167739,25.937059],[108.137877,25.915136],[108.151609,25.885542],[108.110114,25.845761],[108.124025,25.831026],[108.093084,25.811408],[108.08259,25.782904],[108.107895,25.752811],[108.097282,25.740949],[108.09932,25.679246],[108.158505,25.702656],[108.1657,25.65653],[108.186208,25.642796],[108.181711,25.616487],[108.217149,25.611271],[108.237297,25.628501],[108.246831,25.585887],[108.260623,25.588449],[108.286707,25.567905],[108.291444,25.524616],[108.352487,25.533098],[108.359563,25.513477],[108.400338,25.491382],[108.418987,25.443355],[108.433438,25.436406],[108.443153,25.449978],[108.488365,25.456366],[108.51385,25.42871],[108.511271,25.41439],[108.544371,25.407999],[108.56248,25.37408],[108.585866,25.366007],[108.589044,25.335342],[108.625202,25.308126],[108.622264,25.389758],[108.587665,25.421387],[108.611531,25.479633],[108.633178,25.464433],[108.607453,25.492081],[108.621185,25.49278],[108.632878,25.518884],[108.667717,25.532213],[108.690443,25.51893],[108.687325,25.535242],[108.658183,25.551831],[108.660941,25.584815],[108.690443,25.596274],[108.689004,25.623193],[108.76198,25.637767],[108.784046,25.628268],[108.780269,25.601816],[108.799157,25.576011],[108.781288,25.554347],[108.812709,25.52634],[108.826501,25.55006],[108.890422,25.556257],[108.897498,25.54088],[108.952425,25.55635],[108.972872,25.531793],[109.025101,25.512498],[109.088542,25.549501],[109.046328,25.5748],[109.046628,25.618862],[109.031217,25.629526],[109.07523,25.693861],[109.079128,25.720711],[109.055862,25.738111],[109.030557,25.722712],[109.003214,25.736344],[108.948407,25.676686],[108.900316,25.682365],[108.896239,25.71415],[108.911409,25.724759],[108.940252,25.740112],[108.963578,25.732529],[108.964238,25.745089],[109.000036,25.760579],[108.989602,25.778951],[108.997697,25.784392],[109.011789,25.779509],[109.031337,25.793925],[109.077869,25.776765],[109.094779,25.802295],[109.117985,25.809408],[109.143589,25.795273],[109.132316,25.762952],[109.148266,25.741833],[109.19108,25.774533],[109.166136,25.796296],[109.17543,25.804898],[109.206671,25.788112],[109.206971,25.740251],[109.280486,25.713964],[109.313886,25.72206],[109.314906,25.73318],[109.34009,25.731738],[109.327858,25.761417],[109.339311,25.833769],[109.369053,25.842647],[109.396756,25.900316],[109.434353,25.932322],[109.408509,25.96729],[109.468413,26.000531],[109.482624,26.029632],[109.479146,26.047776],[109.453842,26.05404],[109.449704,26.10182],[109.504091,26.096857],[109.514105,26.128253],[109.495217,26.15264],[109.480106,26.145593],[109.467513,26.162329],[109.459298,26.194077],[109.468293,26.203207],[109.452402,26.209647],[109.43963,26.238835],[109.476868,26.299227],[109.466134,26.314135],[109.442628,26.289874],[109.339791,26.26408],[109.32492,26.290337],[109.285883,26.295847],[109.27449,26.315431],[109.319583,26.41862],[109.37355,26.449466],[109.380986,26.461766],[109.362457,26.46625],[109.364076,26.475913],[109.385483,26.493525],[109.381705,26.518482],[109.408749,26.537058],[109.399035,26.570967],[109.385483,26.571014],[109.391299,26.600526],[109.355141,26.65902],[109.334094,26.646234],[109.304232,26.663128],[109.283724,26.698569],[109.364975,26.69617],[109.385963,26.712133],[109.381285,26.727449],[109.40707,26.719837],[109.437711,26.755214],[109.486702,26.760149],[109.476568,26.829899],[109.466914,26.831927],[109.452642,26.861832],[109.436452,26.861141],[109.444847,26.871738],[109.436452,26.892605],[109.555,26.946898],[109.546725,26.984597],[109.527597,26.977187],[109.541329,27.012898],[109.517943,27.043216],[109.518483,27.072559],[109.48982,27.078629],[109.496176,27.062488],[109.487062,27.053933],[109.454561,27.069478],[109.481425,27.071272],[109.482444,27.081113],[109.459598,27.084101],[109.47267,27.134901],[109.440889,27.118169],[109.400834,27.159579],[109.393158,27.143863],[109.358739,27.15287],[109.280546,27.127133],[109.248106,27.153422],[109.163557,27.065799],[109.101135,27.068926],[109.131057,27.110125],[109.122962,27.123364],[109.061978,27.1104],[109.053703,27.098309],[109.032536,27.10378],[108.940432,27.044734],[108.951945,27.018741],[108.921363,27.009769],[108.921004,27.029783],[108.872853,26.999876],[108.87735,27.016257],[108.854744,27.031991],[108.840952,27.06304],[108.831178,27.057888],[108.792261,27.083274],[108.807492,27.098585],[108.82728,27.089343],[108.854324,27.09601],[108.859961,27.11486],[108.887484,27.112515],[108.885085,27.132189],[108.857982,27.152503],[108.840472,27.187468],[108.801256,27.203179],[108.825541,27.21953],[108.857622,27.276786],[108.866197,27.306803],[108.846589,27.352684],[108.864398,27.353555],[108.856962,27.363188],[108.866017,27.368096],[108.883047,27.344977],[108.900016,27.346032],[108.917106,27.366766],[109.018565,27.372361],[109.034995,27.412668],[109.020244,27.436918],[108.950566,27.460018],[108.971433,27.487785],[108.934136,27.511561],[108.903674,27.487969],[108.838554,27.496719],[108.841072,27.507622],[108.830338,27.507576],[108.820564,27.501667],[108.829319,27.478851],[108.759521,27.48719],[108.7618,27.469595],[108.746809,27.471107],[108.710111,27.515684],[108.669516,27.504873],[108.617347,27.521638],[108.575552,27.471611],[108.543472,27.479493],[108.511091,27.418261],[108.490944,27.422891],[108.478291,27.40657],[108.424264,27.424083],[108.321306,27.349473],[108.28221,27.345757],[108.218288,27.364426],[108.16654,27.28771],[108.130741,27.325249],[108.082411,27.33048],[108.004398,27.316852]]],[[[109.452642,26.861832],[109.466914,26.831927],[109.482085,26.837042],[109.486702,26.760149],[109.502352,26.757705],[109.504631,26.744607],[109.52214,26.749219],[109.497495,26.815289],[109.513146,26.840268],[109.513805,26.874271],[109.474169,26.894309],[109.452642,26.861832]]],[[[109.577367,26.751617],[109.558059,26.754661],[109.553921,26.73529],[109.528437,26.741471],[109.547265,26.7179],[109.578146,26.733307],[109.596435,26.760702],[109.577127,26.77057],[109.577367,26.751617]]],[[[107.88483,27.15889],[107.939217,27.15071],[107.929383,27.162658],[107.945154,27.160269],[107.95169,27.192338],[107.922967,27.196013],[107.905098,27.175937],[107.886689,27.17805],[107.88483,27.15889]]]],"type":"MultiPolygon"}},{"type":"Feature","properties":{"display":"安顺","province":"贵州省"},"geometry":{"coordinates":[[[[105.25422,25.98549],[105.266692,25.937431],[105.33613,25.888515],[105.367072,25.892697],[105.376966,25.8828],[105.378585,25.825541],[105.48544,25.747183],[105.531852,25.69521],[105.577844,25.712521],[105.622997,25.678734],[105.680982,25.661418],[105.732671,25.572564],[105.74994,25.563292],[105.786638,25.468397],[105.893853,25.42232],[105.909264,25.436266],[105.927433,25.432209],[105.939186,25.438039],[105.912862,25.491289],[105.993033,25.552343],[105.962092,25.567299],[105.98218,25.612295],[105.992134,25.569256],[106.04916,25.558587],[106.054676,25.581834],[106.076203,25.598556],[106.103607,25.565109],[106.100488,25.54102],[106.069187,25.525455],[106.091794,25.508536],[106.111342,25.511939],[106.135567,25.484995],[106.123095,25.478048],[106.127832,25.454781],[106.155595,25.466112],[106.159313,25.481545],[106.16339,25.465413],[106.191993,25.470402],[106.226472,25.394003],[106.26425,25.401935],[106.29591,25.390411],[106.332009,25.354199],[106.382018,25.367873],[106.418836,25.36204],[106.431009,25.369506],[106.424353,25.389944],[106.391493,25.400675],[106.39527,25.418309],[106.419556,25.430949],[106.410861,25.452776],[106.39611,25.45534],[106.397729,25.486953],[106.417217,25.496883],[106.435206,25.528997],[106.433047,25.560404],[106.470705,25.601863],[106.488934,25.646846],[106.436525,25.67785],[106.401806,25.650711],[106.326552,25.672404],[106.301787,25.697211],[106.308923,25.728295],[106.24692,25.698189],[106.232709,25.702144],[106.259273,25.744438],[106.243202,25.831538],[106.273364,25.858961],[106.297949,25.912999],[106.277382,25.923404],[106.276362,25.937802],[106.289434,25.938545],[106.287096,25.963204],[106.307124,25.967801],[106.31258,25.990458],[106.276602,26.020072],[106.259572,26.016173],[106.254056,26.032185],[106.235047,26.02216],[106.211901,26.021464],[106.239125,26.051395],[106.245601,26.093054],[106.256634,26.102191],[106.269586,26.089807],[106.286676,26.102145],[106.276302,26.128624],[106.256814,26.129829],[106.275463,26.143878],[106.284517,26.191853],[106.299448,26.199499],[106.273604,26.223084],[106.243262,26.22452],[106.257414,26.242449],[106.297829,26.253195],[106.319056,26.222343],[106.337405,26.222343],[106.360791,26.254122],[106.36199,26.281863],[106.381359,26.284086],[106.485995,26.262134],[106.522393,26.31557],[106.547218,26.317977],[106.562089,26.338437],[106.562689,26.375782],[106.497568,26.379946],[106.46117,26.425419],[106.450977,26.422968],[106.443901,26.457604],[106.398209,26.439709],[106.327391,26.451732],[106.352756,26.47374],[106.320076,26.494865],[106.325712,26.520331],[106.315698,26.536365],[106.276962,26.555539],[106.232529,26.538721],[106.201407,26.542371],[106.184078,26.554661],[106.187496,26.587087],[106.150438,26.624444],[106.157994,26.594569],[106.139105,26.572307],[106.130111,26.503185],[106.116319,26.484603],[105.972826,26.439709],[105.959814,26.45409],[105.973905,26.461396],[105.969528,26.521902],[105.933489,26.512474],[105.916999,26.521116],[105.848821,26.477161],[105.778963,26.471521],[105.75012,26.447663],[105.732971,26.460702],[105.701909,26.451223],[105.690636,26.431755],[105.676964,26.442484],[105.607407,26.415429],[105.582462,26.38374],[105.51854,26.354404],[105.493955,26.333114],[105.471469,26.283298],[105.473328,26.259819],[105.50265,26.22957],[105.512064,26.223733],[105.524776,26.236658],[105.542586,26.222157],[105.591756,26.232072],[105.604588,26.209091],[105.661674,26.208535],[105.704308,26.18175],[105.715761,26.188887],[105.722837,26.170162],[105.679363,26.162746],[105.669469,26.135301],[105.630912,26.141931],[105.611724,26.160335],[105.592296,26.062438],[105.567171,26.077747],[105.547083,26.074963],[105.498992,26.030328],[105.383862,26.012692],[105.277486,26.012321],[105.261176,26.008561],[105.25422,25.98549]]],[[[106.226832,26.03237],[106.224374,26.023924],[106.234807,26.027312],[106.226832,26.03237]]]],"type":"MultiPolygon"}},{"type":"Feature","properties":{"display":"铜仁","province":"贵州省"},"geometry":{"coordinates":[[[[108.887124,27.121203],[108.92676,27.160912],[108.914228,27.214662],[108.963458,27.235511],[108.987503,27.270635],[109.040811,27.276235],[109.053943,27.29487],[109.052084,27.336673],[109.069234,27.322817],[109.103773,27.337086],[109.124761,27.387908],[109.115886,27.400105],[109.14197,27.417711],[109.138672,27.430318],[109.125,27.415556],[109.10917,27.41872],[109.123321,27.418399],[109.144009,27.448835],[109.15942,27.442327],[109.156241,27.416519],[109.202114,27.450073],[109.245528,27.418169],[109.299915,27.423946],[109.312387,27.486182],[109.404971,27.550489],[109.433634,27.548383],[109.461937,27.565599],[109.451263,27.585925],[109.470032,27.628762],[109.45612,27.669432],[109.470452,27.680272],[109.414146,27.725037],[109.365935,27.722203],[109.377987,27.73802],[109.333015,27.782808],[109.345547,27.84073],[109.326838,27.858585],[109.337512,27.869543],[109.321861,27.867991],[109.301774,27.958353],[109.320182,27.970989],[109.321622,27.991786],[109.365095,28.009114],[109.379187,28.033096],[109.334574,28.062222],[109.325219,28.04276],[109.298715,28.032503],[109.35676,28.23349],[109.399694,28.269294],[109.376908,28.276935],[109.352203,28.268521],[109.363116,28.282984],[109.34099,28.293717],[109.306391,28.274206],[109.273051,28.309405],[109.268554,28.338092],[109.288342,28.374315],[109.264656,28.39249],[109.256861,28.436734],[109.27437,28.494667],[109.19174,28.47088],[109.176749,28.431511],[109.154263,28.417612],[109.141251,28.320545],[109.081527,28.24855],[109.101435,28.201407],[109.082066,28.184337],[109.02678,28.220066],[109.00981,28.167902],[108.985765,28.161346],[108.929399,28.190574],[108.933176,28.20787],[108.919505,28.217791],[108.855163,28.199859],[108.836215,28.207369],[108.821764,28.245138],[108.773313,28.213468],[108.765338,28.192121],[108.758682,28.220203],[108.738834,28.227347],[108.725762,28.280301],[108.770075,28.314952],[108.76144,28.324591],[108.783087,28.380404],[108.76174,28.395262],[108.779309,28.427423],[108.746749,28.450221],[108.723363,28.491943],[108.709691,28.501066],[108.701416,28.482502],[108.64523,28.46861],[108.641453,28.455715],[108.696799,28.404575],[108.664719,28.382858],[108.656444,28.356365],[108.673953,28.354547],[108.675752,28.343047],[108.610811,28.325091],[108.602416,28.34082],[108.58011,28.343274],[108.577531,28.390173],[108.587425,28.404939],[108.608832,28.407301],[108.609912,28.435689],[108.586766,28.463071],[108.573214,28.528114],[108.610931,28.539412],[108.604635,28.59026],[108.636056,28.621772],[108.632338,28.638953],[108.585327,28.639633],[108.566498,28.662566],[108.561161,28.649151],[108.538495,28.652731],[108.502756,28.637638],[108.501018,28.626668],[108.471096,28.627801],[108.332519,28.679604],[108.34727,28.736271],[108.389005,28.785847],[108.382409,28.805806],[108.354226,28.814269],[108.346431,28.856299],[108.357464,28.893384],[108.346911,28.941484],[108.322925,28.953957],[108.308714,29.003384],[108.29786,29.047144],[108.307155,29.077525],[108.270637,29.090885],[108.242274,29.028359],[108.224645,29.031566],[108.230401,29.046963],[108.197721,29.070664],[108.13272,29.054096],[108.109814,29.076081],[108.069398,29.086552],[108.078993,29.007178],[108.138417,28.932082],[108.128643,28.869778],[108.158085,28.856344],[108.189446,28.800692],[108.207495,28.817572],[108.213671,28.776341],[108.184649,28.74895],[108.163242,28.677066],[108.122586,28.652369],[108.128882,28.644165],[108.114491,28.628799],[108.084269,28.627212],[108.037558,28.592754],[108.04991,28.566766],[108.038517,28.5547],[108.070058,28.516542],[108.048171,28.489901],[108.060104,28.472378],[108.048711,28.444045],[108.068259,28.422018],[108.037138,28.365454],[108.005897,28.389764],[108.025745,28.401213],[108.006197,28.424244],[107.98323,28.422881],[108.010754,28.446452],[107.977294,28.447814],[107.960744,28.411071],[108.00098,28.384585],[107.996662,28.369635],[107.936039,28.384721],[107.913792,28.382903],[107.921108,28.370135],[107.874456,28.370407],[107.861564,28.339502],[107.859225,28.200269],[107.816052,28.17546],[107.803399,28.183563],[107.799022,28.125551],[107.778874,28.072977],[107.813233,28.06728],[107.813293,28.047363],[107.832122,28.049095],[107.8359,28.031044],[107.862164,28.037381],[107.88441,28.063042],[107.933341,28.001408],[107.911394,27.962322],[107.923686,27.90807],[107.898802,27.897709],[107.888368,27.844018],[107.946233,27.767728],[107.927764,27.745288],[107.940776,27.691522],[107.903119,27.627892],[107.902639,27.568392],[107.88513,27.551588],[107.844774,27.555114],[107.808016,27.491267],[107.762924,27.475964],[107.757407,27.453327],[107.798062,27.43811],[107.801001,27.394098],[107.762264,27.385156],[107.780913,27.373691],[107.779953,27.351491],[107.806817,27.347408],[107.805318,27.331948],[107.819829,27.324377],[107.894364,27.345574],[107.908276,27.33204],[107.919369,27.332544],[107.948452,27.354198],[107.958106,27.350757],[107.956547,27.312952],[107.975915,27.317908],[107.9999,27.302764],[108.004398,27.316852],[108.082411,27.33048],[108.130741,27.325249],[108.16654,27.28771],[108.218288,27.364426],[108.28221,27.345757],[108.321306,27.349473],[108.424264,27.424083],[108.478291,27.40657],[108.490944,27.422891],[108.511091,27.418261],[108.543472,27.479493],[108.575552,27.471611],[108.617347,27.521638],[108.669516,27.504873],[108.710111,27.515684],[108.746809,27.471107],[108.7618,27.469595],[108.759521,27.48719],[108.829319,27.478851],[108.820564,27.501667],[108.830338,27.507576],[108.841072,27.507622],[108.838554,27.496719],[108.903674,27.487969],[108.934136,27.511561],[108.971433,27.487785],[108.950566,27.460018],[109.020244,27.436918],[109.034995,27.412668],[109.018565,27.372361],[108.917106,27.366766],[108.900016,27.346032],[108.883047,27.344977],[108.866017,27.368096],[108.856962,27.363188],[108.864398,27.353555],[108.846589,27.352684],[108.866197,27.306803],[108.857622,27.276786],[108.825541,27.21953],[108.801256,27.203179],[108.840472,27.187468],[108.887124,27.121203]]],[[[107.919369,27.332544],[107.906117,27.325983],[107.930822,27.31364],[107.931422,27.321257],[107.919369,27.332544]]]],"type":"MultiPolygon"}},{"type":"Feature","properties":{"display":"池州","province":"安徽省"},"geometry":{"coordinates":[[[116.654151,29.694756],[116.745857,29.790336],[116.762492,29.802506],[116.789804,29.795128],[116.812349,29.811713],[116.891996,29.919337],[116.900147,29.949504],[116.887897,29.968805],[116.868688,29.980469],[116.835943,29.970686],[116.835276,29.95773],[116.829556,30.006534],[116.802816,29.996539],[116.783512,30.030712],[116.747335,30.057248],[116.816925,30.115075],[116.860061,30.17732],[116.867497,30.213576],[116.927173,30.273455],[116.893855,30.381595],[116.892425,30.431099],[116.914446,30.425481],[117.025457,30.494267],[117.135133,30.492075],[117.192187,30.465871],[117.236372,30.504747],[117.252244,30.563967],[117.217068,30.630626],[117.366829,30.694251],[117.470404,30.678989],[117.507249,30.726688],[117.670594,30.781508],[117.701815,30.806614],[117.698526,30.789931],[117.751529,30.802936],[117.758202,30.761674],[117.781938,30.764127],[117.78375,30.749729],[117.796238,30.748449],[117.842282,30.773617],[117.872787,30.807893],[117.934608,30.835763],[117.953626,30.817593],[117.980413,30.843808],[117.989612,30.828836],[117.968783,30.794941],[118.030461,30.774097],[118.124979,30.717833],[118.134941,30.700281],[118.065923,30.600026],[117.985132,30.561348],[117.987229,30.537675],[117.945904,30.466726],[117.938564,30.425106],[117.953197,30.392568],[117.91659,30.366552],[117.940137,30.33469],[117.907677,30.309783],[117.91292,30.299283],[117.886419,30.293228],[117.888516,30.269597],[117.842997,30.260378],[117.824932,30.241617],[117.829317,30.225212],[117.858345,30.21733],[117.852863,30.191749],[117.778125,30.156719],[117.698955,30.143466],[117.673264,30.122106],[117.676219,30.107936],[117.646143,30.114484],[117.631176,30.099293],[117.61049,30.131499],[117.599765,30.129781],[117.560299,30.103748],[117.571071,30.101762],[117.559965,30.0834],[117.541043,30.11062],[117.528983,30.099561],[117.544093,30.086783],[117.542091,30.052844],[117.511491,30.037105],[117.461777,30.037965],[117.433273,30.02072],[117.394093,30.029745],[117.386372,30.011048],[117.206152,29.974288],[117.206248,29.927511],[117.134704,29.903846],[117.127697,29.861611],[117.073312,29.832224],[117.135609,29.780965],[117.108679,29.751985],[117.122454,29.728548],[117.113016,29.712165],[117.051243,29.682896],[116.996048,29.683381],[116.971167,29.655668],[116.873455,29.609282],[116.838088,29.569837],[116.780652,29.570539],[116.786944,29.591315],[116.760443,29.599085],[116.721596,29.56498],[116.716544,29.590775],[116.651911,29.63717],[116.677078,29.66904],[116.680509,29.681495],[116.654151,29.694756]],[[116.698956,29.7078],[116.705819,29.697128],[116.703388,29.710063],[116.698956,29.7078]],[[116.715876,29.697289],[116.705057,29.688664],[116.717163,29.690767],[116.715876,29.697289]],[[117.319784,30.49277],[117.256724,30.458543],[117.267211,30.441746],[117.251958,30.420558],[117.281129,30.414458],[117.299289,30.425374],[117.293378,30.440997],[117.326648,30.470631],[117.319784,30.49277]]],"type":"Polygon"}},{"type":"Feature","properties":{"display":"咸阳","province":"陕西省"},"geometry":{"coordinates":[[[107.820028,34.973739],[107.857961,34.844438],[107.90804,34.842684],[107.951787,34.863332],[107.94983,34.821552],[107.963127,34.79842],[107.992023,34.782782],[108.015335,34.726032],[108.032143,34.626644],[107.995822,34.612573],[107.980453,34.575866],[108.002441,34.552105],[107.997606,34.487189],[108.017637,34.479101],[108.011881,34.457956],[108.041698,34.390001],[108.027711,34.38503],[108.029438,34.370838],[108.053095,34.325761],[108.009118,34.317015],[107.995764,34.332901],[107.987878,34.313485],[107.953744,34.32183],[107.950808,34.287803],[107.995131,34.265647],[107.990181,34.22212],[108.086769,34.231036],[108.20195,34.221718],[108.237638,34.199625],[108.293185,34.209989],[108.328585,34.195928],[108.37452,34.207659],[108.468115,34.205731],[108.650125,34.265808],[108.692087,34.238987],[108.700952,34.273675],[108.744756,34.276886],[108.750282,34.296151],[108.796792,34.296713],[108.803239,34.359531],[108.961015,34.424787],[108.955834,34.444979],[108.976441,34.44594],[108.974081,34.541383],[108.955201,34.565866],[109.06123,34.593542],[109.108891,34.577705],[109.138823,34.588823],[109.139053,34.639514],[109.168237,34.666525],[109.173187,34.705589],[109.090356,34.700876],[109.068655,34.713176],[109.046436,34.687058],[109.029053,34.70503],[109.04517,34.752297],[109.034406,34.771451],[108.957158,34.829766],[108.918189,34.83455],[108.898561,34.823545],[108.902302,34.810146],[108.855504,34.82219],[108.82327,34.804881],[108.81383,34.830643],[108.766399,34.87202],[108.726509,34.866839],[108.689036,34.880707],[108.62048,35.011782],[108.583526,35.043524],[108.626812,35.099897],[108.591297,35.101645],[108.662673,35.128585],[108.655708,35.156866],[108.633432,35.164093],[108.65473,35.178467],[108.656629,35.194267],[108.676545,35.196729],[108.670674,35.210462],[108.696865,35.222764],[108.750627,35.293366],[108.873349,35.326108],[108.868629,35.344653],[108.846467,35.349803],[108.835876,35.380304],[108.803584,35.379195],[108.808246,35.392898],[108.767378,35.486769],[108.727084,35.505831],[108.690303,35.505436],[108.659162,35.537775],[108.622898,35.540779],[108.605975,35.502826],[108.631129,35.418632],[108.610752,35.356459],[108.615357,35.331656],[108.568272,35.290908],[108.543463,35.303911],[108.489125,35.275285],[108.449062,35.273699],[108.352819,35.285753],[108.345336,35.300661],[108.298078,35.268385],[108.239365,35.256248],[108.221463,35.296855],[108.193776,35.306607],[108.094885,35.280043],[108.048663,35.253789],[107.949772,35.2453],[107.960594,35.261484],[107.866193,35.256407],[107.841844,35.276395],[107.745716,35.311601],[107.716648,35.302326],[107.736794,35.296141],[107.737312,35.267433],[107.692357,35.251171],[107.662597,35.255375],[107.651948,35.239746],[107.670311,35.21443],[107.687291,35.216653],[107.715784,35.168144],[107.722519,35.114917],[107.762006,35.084316],[107.759474,35.071198],[107.802069,35.032388],[107.848349,35.023876],[107.843629,35.002313],[107.863372,34.999209],[107.858595,34.986873],[107.820028,34.973739]]],"type":"Polygon"}},{"type":"Feature","properties":{"display":"宁波","province":"浙江省"},"geometry":{"coordinates":[[[[120.86702,30.271729],[120.92765,30.165215],[120.939461,30.125723],[120.930455,30.115192],[120.950141,30.091012],[120.96766,30.089987],[120.969924,30.07027],[120.992562,30.050425],[120.990151,30.027787],[121.018202,30.010765],[121.039511,30.013923],[121.038133,29.998704],[121.064413,30.006827],[121.091627,29.987257],[121.085869,29.972648],[121.045072,29.955616],[121.016578,29.894934],[121.060574,29.854143],[121.10649,29.836228],[121.096499,29.815966],[121.104964,29.805485],[121.055111,29.760669],[121.024796,29.763918],[121.03518,29.746439],[121.010722,29.73525],[121.034787,29.715997],[121.009639,29.709003],[121.01397,29.693119],[120.992414,29.675833],[121.017759,29.669742],[121.058802,29.683859],[121.074895,29.66085],[121.074206,29.637259],[121.117562,29.605508],[121.105702,29.585447],[121.120417,29.575601],[121.112986,29.554834],[121.225585,29.532908],[121.231539,29.51308],[121.216726,29.496795],[121.228488,29.490733],[121.224059,29.449242],[121.209197,29.436742],[121.226815,29.414749],[121.230063,29.362658],[121.193399,29.341434],[121.190742,29.312358],[121.201077,29.312482],[121.175289,29.278274],[121.179325,29.258727],[121.158852,29.244756],[121.174403,29.223095],[121.164708,29.2116],[121.233705,29.196797],[121.238872,29.175745],[121.264364,29.1544],[121.256096,29.114055],[121.295221,29.092696],[121.298616,29.114593],[121.316973,29.105653],[121.348715,29.135574],[121.356343,29.186044],[121.378784,29.199236],[121.403833,29.17864],[121.407032,29.156882],[121.450044,29.159612],[121.529719,29.136277],[121.564267,29.173056],[121.60846,29.169127],[121.715596,29.12498],[121.749947,29.136691],[121.768008,29.166686],[121.780557,29.109626],[121.811167,29.109916],[121.860036,29.086404],[121.898077,29.103956],[121.909642,29.085866],[121.903835,29.069056],[121.931591,29.070713],[121.935085,29.05183],[121.951621,29.04744],[121.966138,29.052866],[121.984396,29.086942],[121.968747,29.093028],[121.98853,29.110992],[121.979278,29.144842],[121.988284,29.149269],[121.9373,29.182859],[121.948619,29.19324],[121.971896,29.193364],[121.968304,29.250006],[122.001965,29.26009],[122.000243,29.278811],[121.944829,29.284182],[121.958363,29.334373],[121.932231,29.353451],[121.937693,29.384125],[121.975538,29.411159],[121.991729,29.445942],[121.96668,29.506566],[121.995076,29.545108],[121.985774,29.563776],[121.999751,29.593686],[121.966089,29.635859],[121.923422,29.65167],[121.872486,29.632483],[121.833559,29.653111],[121.925538,29.741256],[122.015991,29.771936],[122.04857,29.826036],[122.143058,29.877724],[122.140155,29.901751],[122.11673,29.909964],[122.080115,29.892634],[122.00979,29.891114],[122.003442,29.898999],[122.0029,29.923186],[121.968008,29.956519],[121.919534,29.920804],[121.784051,29.993493],[121.724996,29.992221],[121.69975,30.008016],[121.653096,30.071131],[121.626029,30.07769],[121.591678,30.143546],[121.49778,30.258595],[121.395073,30.338437],[121.371894,30.370894],[121.328046,30.397131],[121.225486,30.404649],[121.119236,30.48976],[121.086952,30.397131],[121.032572,30.337006],[120.86702,30.271729]]],[[[122.026375,29.178351],[122.013383,29.151504],[122.056739,29.158454],[122.074505,29.178144],[122.049013,29.175083],[122.056198,29.200518],[122.036217,29.207383],[122.029771,29.187367],[122.040843,29.17955],[122.026375,29.178351]]],[[[122.231297,28.859829],[122.238679,28.853315],[122.243797,28.861322],[122.231297,28.859829]]],[[[122.181936,29.407693],[122.207921,29.429645],[122.223866,29.428366],[122.22485,29.438392],[122.179771,29.424694],[122.181936,29.407693]]],[[[121.790892,29.082264],[121.82352,29.051043],[121.838628,29.057752],[121.831591,29.095015],[121.793795,29.099444],[121.790892,29.082264]]],[[[122.19483,29.465453],[122.183216,29.455595],[122.194141,29.45345],[122.19483,29.465453]]],[[[122.037645,29.613457],[122.022389,29.620211],[122.025686,29.604314],[122.037645,29.613457]]],[[[122.258807,28.886586],[122.267321,28.880364],[122.267025,28.886835],[122.258807,28.886586]]],[[[121.983461,29.227808],[121.991089,29.221441],[122.001818,29.221441],[121.993451,29.227808],[121.983461,29.227808]]],[[[121.980705,29.472671],[121.990843,29.467845],[121.987792,29.474898],[121.980705,29.472671]]],[[[121.976178,29.501124],[121.983806,29.497042],[122.004967,29.503763],[121.989908,29.510071],[121.976178,29.501124]]],[[[121.952064,29.187616],[121.971404,29.163294],[121.983511,29.165404],[121.975636,29.192123],[121.952064,29.187616]]],[[[121.931,29.041394],[121.940991,29.03369],[121.954524,29.043961],[121.931,29.041394]]],[[[122.013826,29.23281],[122.00103,29.227394],[122.008609,29.222971],[122.013826,29.23281]]],[[[122.001621,29.410416],[122.016286,29.404185],[122.018944,29.409674],[122.001621,29.410416]]],[[[121.981444,29.332638],[121.978688,29.340485],[121.985135,29.348454],[121.970223,29.340856],[121.981444,29.332638]]],[[[122.178295,29.406001],[122.173866,29.399769],[122.184348,29.399604],[122.178295,29.406001]]],[[[122.009987,29.902654],[122.02165,29.901546],[122.02416,29.909594],[122.011513,29.917027],[122.009987,29.902654]]],[[[122.006247,29.899574],[122.014367,29.892634],[122.017221,29.900806],[122.006247,29.899574]]]],"type":"MultiPolygon"}},{"type":"Feature","properties":{"display":"承德","province":"河北省"},"geometry":{"coordinates":[[[119.158474,40.614418],[119.146557,40.63579],[119.185833,40.67574],[119.176222,40.690191],[119.115098,40.666513],[119.05423,40.664964],[119.027063,40.692448],[118.987723,40.697931],[118.949344,40.747834],[118.895459,40.754021],[118.910965,40.776766],[118.849135,40.800919],[118.846252,40.822103],[118.873034,40.848042],[118.903468,40.961784],[119.000601,40.967052],[119.0204,40.997878],[118.951971,41.018421],[118.93685,41.052624],[118.964657,41.079307],[119.037507,41.067378],[119.073771,41.084244],[119.081204,41.131422],[119.126374,41.138662],[119.184295,41.182727],[119.188909,41.198156],[119.166483,41.21294],[119.169623,41.222923],[119.209796,41.225803],[119.20954,41.244483],[119.248367,41.27665],[119.239461,41.314489],[119.212103,41.308099],[119.200698,41.28234],[119.154951,41.297682],[119.035136,41.298768],[118.949536,41.318003],[118.934671,41.304584],[118.890718,41.300749],[118.844907,41.34247],[118.846124,41.373823],[118.770007,41.353071],[118.763343,41.328928],[118.741879,41.324073],[118.676974,41.350453],[118.528135,41.355051],[118.412422,41.33193],[118.399607,41.311102],[118.380193,41.312124],[118.349119,41.342789],[118.348286,41.373886],[118.361741,41.386717],[118.343993,41.404139],[118.34867,41.428318],[118.269605,41.478881],[118.295426,41.485127],[118.315801,41.512525],[118.302923,41.552709],[118.313302,41.561494],[118.215337,41.595668],[118.206879,41.65074],[118.169013,41.67076],[118.130698,41.742275],[118.140372,41.783965],[118.165873,41.813265],[118.236032,41.807559],[118.246988,41.774005],[118.270823,41.762203],[118.292287,41.772863],[118.331755,41.840651],[118.340213,41.872459],[118.270182,41.917357],[118.268901,41.930143],[118.306511,41.940269],[118.314007,41.987774],[118.237634,42.022859],[118.283061,42.03158],[118.297284,42.048765],[118.272232,42.083311],[118.226613,42.090256],[118.212581,42.081101],[118.220206,42.058619],[118.204188,42.034866],[118.116538,42.037204],[118.155173,42.081164],[118.088859,42.117144],[118.10635,42.171958],[117.977438,42.229875],[117.971095,42.248014],[118.047468,42.280563],[118.059962,42.29831],[118.016265,42.333286],[118.009153,42.358248],[118.021263,42.371636],[118.019405,42.395201],[117.797588,42.585277],[117.801496,42.612706],[117.779904,42.618591],[117.66733,42.582459],[117.600311,42.603001],[117.539955,42.605443],[117.524898,42.590727],[117.473512,42.602437],[117.435197,42.585403],[117.44436,42.577447],[117.433147,42.555769],[117.39637,42.536339],[117.387015,42.517405],[117.416296,42.512326],[117.412836,42.472493],[117.390732,42.462076],[117.330056,42.461887],[117.275466,42.481905],[117.175963,42.465527],[117.094912,42.483661],[117.079535,42.460632],[117.016744,42.45649],[117.006685,42.432948],[116.914421,42.402677],[116.886806,42.366608],[116.918522,42.229875],[116.903401,42.19087],[116.789225,42.200261],[116.825169,42.155563],[116.850221,42.15632],[116.890651,42.092655],[116.868161,42.002885],[116.831961,42.005351],[116.796209,41.978099],[116.766479,41.990304],[116.744631,41.982146],[116.72746,41.951089],[116.669154,41.947735],[116.634812,41.929953],[116.566383,41.928751],[116.533706,41.938876],[116.496416,41.97968],[116.453873,41.945964],[116.393133,41.94299],[116.41402,41.98221],[116.409087,41.994034],[116.373719,42.009965],[116.327267,42.005667],[116.29837,41.968106],[116.233401,41.941408],[116.193164,41.861816],[116.134731,41.863844],[116.106667,41.849587],[116.129221,41.806607],[116.098658,41.776479],[116.081039,41.776352],[116.056307,41.733705],[115.909967,41.642921],[115.929252,41.596113],[115.924767,41.568623],[115.97391,41.529659],[115.97673,41.470913],[116.036124,41.397694],[116.08751,41.376951],[116.141586,41.373439],[116.203352,41.326117],[116.209503,41.307715],[116.191627,41.288158],[116.198995,41.259578],[116.235195,41.211853],[116.22347,41.174275],[116.245895,41.16358],[116.233273,41.130845],[116.296128,41.062118],[116.264733,41.038252],[116.29837,40.986641],[116.333546,40.984458],[116.398515,40.905999],[116.474184,40.896032],[116.473607,40.919757],[116.447466,40.953818],[116.455539,40.980476],[116.516791,40.975274],[116.569715,40.991265],[116.597778,40.97476],[116.614309,40.982916],[116.622958,41.02086],[116.614116,41.03607],[116.630839,41.060771],[116.64769,41.059296],[116.688632,41.044669],[116.698884,41.021246],[116.67774,40.971227],[116.722334,40.927406],[116.713236,40.911978],[116.79512,40.863614],[116.805051,40.840706],[116.847723,40.839354],[116.87617,40.821202],[116.896353,40.79712],[116.894623,40.781597],[116.923391,40.773738],[116.926531,40.744869],[116.979967,40.702833],[117.031032,40.692126],[117.110673,40.70825],[117.20236,40.695609],[117.32115,40.658317],[117.409248,40.687288],[117.492862,40.675417],[117.514583,40.660511],[117.501256,40.636759],[117.477997,40.635338],[117.46198,40.65309],[117.448909,40.628366],[117.430264,40.626041],[117.412708,40.605118],[117.430008,40.576112],[117.387464,40.560861],[117.342742,40.581604],[117.311859,40.57805],[117.247403,40.54024],[117.264126,40.517285],[117.219019,40.514375],[117.208575,40.501115],[117.236511,40.45653],[117.263357,40.442352],[117.234076,40.417162],[117.240675,40.394424],[117.226195,40.369021],[117.242277,40.369993],[117.260217,40.335762],[117.275018,40.33239],[117.274377,40.308521],[117.293342,40.296713],[117.296354,40.278088],[117.331465,40.28977],[117.350943,40.229978],[117.386375,40.22712],[117.415335,40.236862],[117.419115,40.249785],[117.450062,40.252512],[117.514326,40.227705],[117.54617,40.232901],[117.571671,40.219261],[117.56238,40.206073],[117.575451,40.192817],[117.609409,40.194897],[117.694112,40.238161],[117.75152,40.229718],[117.807775,40.261926],[118.000888,40.29256],[118.061564,40.319095],[118.079312,40.353528],[118.121856,40.354695],[118.165232,40.400449],[118.153123,40.409519],[118.156967,40.423768],[118.173818,40.423056],[118.239684,40.464686],[118.277935,40.425711],[118.306575,40.419558],[118.387305,40.436719],[118.402683,40.416838],[118.430746,40.411851],[118.503211,40.403365],[118.548062,40.422667],[118.571512,40.414636],[118.550881,40.385482],[118.558377,40.36928],[118.539989,40.361048],[118.532364,40.319419],[118.533325,40.298854],[118.568949,40.287564],[118.640197,40.354566],[118.643785,40.380946],[118.618349,40.425193],[118.624179,40.437626],[118.702795,40.491411],[118.723491,40.473746],[118.772954,40.479765],[118.821328,40.531964],[118.864,40.527244],[118.886938,40.542438],[118.919038,40.53093],[118.966003,40.536102],[118.952676,40.558469],[119.063392,40.606151],[119.086394,40.588775],[119.158474,40.614418]]],"type":"Polygon"}},{"type":"Feature","properties":{"display":"葫芦岛","province":"辽宁省"},"geometry":{"coordinates":[[[[121.030003,40.790545],[121.00729,40.852884],[121.030628,40.884031],[121.036394,40.922394],[121.023613,40.928187],[121.034171,40.943649],[121.017292,40.942261],[121.00986,40.956092],[121.034726,41.050491],[120.99055,41.033381],[120.982978,41.045377],[120.954986,41.045903],[120.944706,41.051877],[120.938315,41.123803],[120.90935,41.121082],[120.898584,41.130962],[120.907683,41.145661],[120.876078,41.156062],[120.834472,41.131535],[120.788489,41.161835],[120.795851,41.182441],[120.786752,41.20099],[120.698259,41.184444],[120.701385,41.199035],[120.664154,41.177815],[120.64026,41.18411],[120.63637,41.168752],[120.611572,41.15549],[120.598653,41.105661],[120.537527,41.092625],[120.527525,41.062245],[120.477027,41.077628],[120.4548,41.051494],[120.454383,40.990778],[120.406594,40.953269],[120.339495,40.996804],[120.348595,41.001013],[120.320532,41.000439],[120.279481,40.945659],[120.257045,40.945372],[120.252183,40.959011],[120.218425,40.956954],[120.196823,40.923543],[120.179875,40.922202],[120.166886,40.943649],[120.204464,40.973988],[120.205019,40.9914],[120.178624,41.027501],[120.146186,41.006991],[120.108747,41.063057],[120.119236,41.076291],[120.112845,41.087802],[120.062417,41.10165],[119.999485,41.075574],[119.993651,41.067118],[120.02977,41.003021],[119.979967,40.933213],[119.967395,40.927995],[119.938916,40.947047],[119.908006,40.909992],[119.8689,40.912482],[119.832433,40.936134],[119.818957,40.929719],[119.826181,40.886378],[119.815832,40.872245],[119.781171,40.846605],[119.741439,40.86774],[119.715183,40.861223],[119.69504,40.835627],[119.711154,40.818557],[119.684412,40.78047],[119.670451,40.782245],[119.638082,40.829921],[119.608561,40.840277],[119.572928,40.818269],[119.528126,40.834812],[119.531321,40.816399],[119.505273,40.771017],[119.464222,40.764634],[119.432131,40.730838],[119.419489,40.696112],[119.345861,40.669154],[119.296475,40.614148],[119.27779,40.606595],[119.250839,40.617515],[119.220624,40.569109],[119.256118,40.543303],[119.30217,40.530301],[119.477836,40.533335],[119.503884,40.553945],[119.572997,40.538536],[119.571955,40.523654],[119.550909,40.509395],[119.604949,40.455029],[119.586681,40.375472],[119.598142,40.334186],[119.651905,40.272426],[119.625162,40.224158],[119.671562,40.23959],[119.716781,40.196091],[119.745954,40.207948],[119.762625,40.13997],[119.736716,40.10484],[119.771585,40.082251],[119.760471,40.065619],[119.770891,40.048789],[119.796035,40.040155],[119.835003,40.050245],[119.854243,40.032295],[119.839796,40.006284],[119.854243,39.988469],[119.913979,39.988469],[119.94225,40.012108],[119.955864,40.046704],[120.092215,40.077596],[120.134309,40.07459],[120.161745,40.096019],[120.272952,40.12718],[120.371725,40.174549],[120.465149,40.178761],[120.483279,40.190379],[120.523913,40.256711],[120.531832,40.321288],[120.602334,40.360941],[120.596222,40.398978],[120.615809,40.413212],[120.619005,40.459995],[120.667002,40.467467],[120.694022,40.505685],[120.722015,40.515465],[120.728127,40.539355],[120.822733,40.594134],[120.83718,40.651753],[120.831624,40.674344],[120.942622,40.686935],[120.983534,40.71278],[121.039728,40.714173],[121.028753,40.746346],[120.979366,40.749658],[120.995829,40.78877],[120.971795,40.805704],[120.979853,40.820427],[121.007359,40.80767],[121.010971,40.784644],[121.023752,40.779126],[121.030003,40.790545]]],[[[120.786544,40.47359],[120.832804,40.492097],[120.822108,40.522787],[120.792934,40.515176],[120.793004,40.499711],[120.775152,40.489495],[120.786544,40.47359]]],[[[120.614837,40.396661],[120.620672,40.396323],[120.621366,40.406216],[120.614837,40.396661]]]],"type":"MultiPolygon"}},{"type":"Feature","properties":{"display":"临夏","province":"甘肃省"},"geometry":{"coordinates":[[[102.742448,35.495247],[102.820385,35.460922],[102.871142,35.408565],[102.926975,35.428163],[102.949079,35.4073],[102.959395,35.356912],[102.955137,35.259946],[102.97102,35.252978],[102.989849,35.283064],[103.019485,35.288552],[103.08023,35.275676],[103.114778,35.236717],[103.165371,35.226895],[103.262138,35.236928],[103.297996,35.18284],[103.36398,35.142674],[103.457145,35.128399],[103.488745,35.133475],[103.490874,35.152294],[103.5359,35.141088],[103.624971,35.094025],[103.676875,35.052332],[103.680477,35.036772],[103.708312,35.039736],[103.729597,35.010831],[103.677857,34.992826],[103.691938,34.987212],[103.729761,35.004159],[103.733036,34.978419],[103.668524,34.932958],[103.685717,34.907939],[103.757104,34.927128],[103.803932,34.929142],[103.833732,34.91483],[103.848468,34.953732],[103.834878,34.977996],[103.784612,35.002676],[103.786249,35.01549],[103.743514,35.044817],[103.748918,35.088417],[103.735328,35.100477],[103.748426,35.115074],[103.716498,35.133263],[103.721083,35.190237],[103.691611,35.195626],[103.689974,35.219818],[103.77708,35.356912],[103.780682,35.387486],[103.814084,35.39634],[103.800494,35.435117],[103.854198,35.477349],[103.854362,35.498089],[103.8113,35.534186],[103.785267,35.598973],[103.640526,35.719993],[103.621533,35.753577],[103.595663,35.75704],[103.59157,35.781063],[103.56439,35.807177],[103.547853,35.803193],[103.515925,35.851729],[103.471062,35.8818],[103.476629,35.917306],[103.509212,35.940967],[103.542122,35.943898],[103.558659,35.911127],[103.595991,35.909452],[103.623989,35.934895],[103.616785,35.959284],[103.632831,35.982409],[103.622352,35.99444],[103.633322,36.017451],[103.596318,36.069514],[103.575033,36.06293],[103.571267,36.091876],[103.496604,36.108382],[103.483342,36.098354],[103.475646,36.110785],[103.438315,36.069201],[103.41048,36.07777],[103.412282,36.123005],[103.365617,36.119872],[103.312895,36.152556],[103.259846,36.146605],[103.257881,36.15955],[103.230374,36.168318],[103.165863,36.176146],[103.155711,36.19013],[103.123128,36.195661],[103.10741,36.221637],[103.102661,36.211623],[102.987393,36.193782],[102.966435,36.152242],[102.948588,36.150572],[102.94122,36.104935],[102.883913,36.088951],[102.89603,36.065647],[102.909947,36.070455],[102.932379,36.048609],[102.969219,36.044114],[102.9535,36.015778],[102.971838,35.995277],[102.942203,35.928195],[102.95612,35.861579],[102.942366,35.829928],[102.91404,35.845126],[102.784036,35.862313],[102.737208,35.820598],[102.715104,35.81546],[102.68596,35.772147],[102.708064,35.704981],[102.743921,35.657825],[102.764552,35.653308],[102.763242,35.611903],[102.80876,35.560486],[102.746214,35.545233],[102.729513,35.523664],[102.78289,35.528083],[102.742448,35.495247]]],"type":"Polygon"}},{"type":"Feature","properties":{"display":"北海","province":"广西壮族自治区"},"geometry":{"coordinates":[[[[109.619758,21.895968],[109.594183,21.913372],[109.558864,21.893911],[109.540291,21.902085],[109.523697,21.873112],[109.493859,21.880842],[109.483659,21.901306],[109.461509,21.885625],[109.444687,21.896024],[109.442403,21.914762],[109.426647,21.918321],[109.418502,21.906088],[109.390872,21.907367],[109.389806,21.889907],[109.339949,21.908424],[109.310643,21.883845],[109.312546,21.90114],[109.299606,21.898693],[109.290548,21.914929],[109.267256,21.910982],[109.278445,21.890574],[109.259492,21.891297],[109.261319,21.87389],[109.231557,21.852198],[109.141509,21.844967],[109.113878,21.871276],[109.09462,21.871666],[109.061205,21.837068],[108.998864,21.837958],[108.972223,21.813924],[108.975648,21.831505],[108.956162,21.82405],[108.968189,21.80708],[108.944744,21.760444],[108.859873,21.737287],[108.850282,21.686898],[108.85835,21.660555],[108.915972,21.596264],[109.092261,21.579936],[109.106875,21.566059],[109.142727,21.564386],[109.152013,21.540752],[109.142118,21.512041],[109.057932,21.480758],[109.038065,21.451923],[109.046666,21.424478],[109.082898,21.424812],[109.138845,21.388991],[109.18619,21.390944],[109.245791,21.425705],[109.317113,21.435021],[109.485182,21.45343],[109.529863,21.436974],[109.544782,21.443612],[109.541052,21.466091],[109.566628,21.477524],[109.604535,21.52347],[109.612299,21.556918],[109.682099,21.472616],[109.785619,21.456944],[109.788359,21.490462],[109.74383,21.601056],[109.766209,21.666904],[109.748626,21.652757],[109.715895,21.669912],[109.706761,21.659441],[109.689026,21.686174],[109.708131,21.800291],[109.692375,21.823159],[109.707522,21.836178],[109.695343,21.861154],[109.70364,21.890519],[109.697018,21.902363],[109.663754,21.895357],[109.641452,21.908201],[109.619758,21.895968]]],[[[109.088531,21.014746],[109.104059,21.005403],[109.107789,21.025879],[109.133821,21.01939],[109.144554,21.041262],[109.138997,21.067325],[109.092413,21.057426],[109.088531,21.014746]]],[[[109.206818,20.916643],[109.218541,20.899288],[109.22227,20.909085],[109.206818,20.916643]]]],"type":"MultiPolygon"}},{"type":"Feature","properties":{"display":"阿拉善","province":"内蒙古自治区"},"geometry":{"coordinates":[[[105.233841,41.75109],[105.009553,41.583242],[104.923133,41.65413],[104.689017,41.645231],[104.52427,41.661831],[104.53005,41.874855],[104.095636,41.808649],[103.868747,41.802503],[103.418437,41.882358],[102.712045,42.152748],[102.540938,42.162256],[102.449026,42.144088],[102.070395,42.232166],[101.80362,42.503768],[101.581644,42.525209],[100.862824,42.671218],[100.325515,42.690077],[100.272622,42.636349],[99.969139,42.647806],[99.507557,42.56807],[98.195355,42.653365],[97.172763,42.795208],[97.847073,41.656526],[97.614114,41.477279],[97.629432,41.440546],[97.971934,41.097965],[98.18495,40.988098],[98.250271,40.939152],[98.333223,40.919079],[98.344206,40.568375],[98.628035,40.677897],[98.56994,40.746821],[98.668499,40.772845],[98.687864,40.696828],[98.715611,40.661741],[98.800298,40.610293],[98.807234,40.659309],[98.791049,40.705337],[98.984988,40.782904],[99.041638,40.693702],[99.102046,40.676334],[99.125747,40.715233],[99.173148,40.747342],[99.174882,40.858302],[99.565941,40.846695],[99.673171,40.932923],[100.057005,40.908001],[100.108163,40.875623],[100.23736,40.716795],[100.242563,40.618639],[100.169727,40.541402],[100.169727,40.277536],[100.0018,40.196933],[99.955844,40.150906],[99.928386,40.064893],[99.875493,40.027196],[99.833295,40.012111],[99.75121,40.006848],[99.713925,39.972102],[99.524609,39.888149],[99.459577,39.898165],[99.441079,39.885864],[99.487903,39.876021],[99.672593,39.887973],[99.822022,39.860024],[99.904396,39.78579],[100.040819,39.757095],[100.127817,39.702137],[100.250078,39.685041],[100.314242,39.606913],[100.300947,39.572318],[100.326382,39.509084],[100.500668,39.481335],[100.499222,39.400499],[100.617436,39.3874],[100.707903,39.404569],[100.842013,39.405808],[100.84288,39.200217],[100.864269,39.106971],[100.829296,39.074972],[100.835077,39.026058],[100.875541,39.002389],[100.901843,39.029972],[100.969476,38.996693],[100.969187,38.947011],[101.117171,38.975151],[101.228737,39.02072],[101.198678,38.94327],[101.237697,38.907277],[101.242032,38.861278],[101.335389,38.84683],[101.341459,38.822209],[101.306197,38.801864],[101.331343,38.777227],[101.412272,38.764191],[101.557654,38.715062],[101.601876,38.655168],[101.679047,38.690931],[101.777029,38.660533],[101.873854,38.734003],[101.941488,38.808825],[102.07502,38.891591],[101.926169,39.000609],[101.8305,39.093462],[102.286591,39.192584],[102.352201,39.231272],[102.453651,39.255219],[102.583426,39.18069],[103.013215,39.101106],[103.346468,39.332503],[103.595324,39.386692],[103.848804,39.461179],[103.955745,39.457111],[104.090145,39.419788],[104.047657,39.297771],[104.177432,39.1521],[104.207202,39.083685],[104.191017,39.042248],[104.196219,38.988148],[104.167894,38.94042],[104.044478,38.894978],[103.859787,38.644435],[103.416413,38.40504],[103.466416,38.350995],[103.507747,38.280909],[103.534916,38.156746],[103.368723,38.088996],[103.368145,37.98563],[103.401962,37.861868],[103.683189,37.777916],[103.841,37.647458],[103.871348,37.605736],[104.183502,37.406779],[104.23784,37.411873],[104.322526,37.448431],[104.407501,37.464613],[104.41964,37.511865],[104.806075,37.539657],[104.866482,37.566713],[105.028051,37.581054],[105.111003,37.633856],[105.31477,37.702025],[105.403791,37.709998],[105.467378,37.694957],[105.598887,37.699307],[105.616229,37.7225],[105.62201,37.777735],[105.677504,37.771942],[105.760745,37.799818],[105.808724,37.875428],[105.799764,37.940124],[105.839939,38.007831],[105.782133,38.082326],[105.76797,38.121618],[105.775196,38.186816],[105.797163,38.217054],[105.84254,38.241164],[105.865952,38.297269],[105.82173,38.368236],[105.835604,38.390321],[105.83676,38.475902],[105.862773,38.52645],[105.856703,38.572127],[105.875201,38.591822],[105.852946,38.641573],[105.893121,38.69111],[105.905838,38.731323],[105.898613,38.789546],[106.002953,38.875901],[105.973183,38.911376],[106.018849,38.951108],[106.060759,38.968562],[106.089373,39.015915],[106.078101,39.026592],[106.098333,39.087596],[106.146023,39.153165],[106.250941,39.131493],[106.295452,39.167906],[106.279845,39.262135],[106.402972,39.291744],[106.506445,39.270115],[106.525232,39.308405],[106.555869,39.322227],[106.602692,39.375362],[106.680731,39.355884],[106.751254,39.381558],[106.752988,39.431464],[106.66888,39.459764],[106.620034,39.499541],[106.611363,39.541238],[106.639688,39.57426],[106.769752,39.633906],[106.76455,39.65507],[106.79432,39.6898],[106.759925,39.711476],[106.766573,39.764314],[106.752699,39.789134],[106.749809,39.858442],[106.720328,39.915559],[106.729288,40.047362],[106.823223,40.108701],[106.839409,40.14793],[106.866867,40.16806],[106.866289,40.185385],[106.740271,40.196408],[106.705587,40.262332],[106.765706,40.294834],[106.820044,40.355251],[106.813685,40.369911],[106.60327,40.386836],[106.521186,40.37375],[106.468004,40.325573],[106.432742,40.348619],[106.328402,40.346698],[106.229264,40.465296],[106.209321,40.516333],[106.279266,40.509368],[106.281001,40.539661],[106.344588,40.519815],[106.374069,40.491952],[106.48101,40.493868],[106.498352,40.483416],[106.479565,40.555151],[106.319442,40.598816],[106.299788,40.592033],[106.247184,40.626288],[106.241981,40.668517],[106.211344,40.673207],[106.18273,40.704642],[106.155561,40.69266],[106.115386,40.71801],[105.944279,40.739533],[105.835604,40.782037],[105.704384,40.810127],[105.398589,40.983949],[105.379224,41.059636],[105.317949,41.113325],[105.334135,41.131614],[105.317082,41.201273],[105.248003,41.319557],[105.222858,41.396748],[105.201469,41.542798],[105.233841,41.75109]]],"type":"Polygon"}}]}