{"type":"FeatureCollection","features":[{"type":"Feature","properties":{"display":"湛江","province":"广东省"},"geometry":{"coordinates":[110.188859,21.36468],"type":"Point"}},{"type":"Feature","properties":{"display":"广州","province":"广东省"},"geometry":{"coordinates":[113.480044,23.378605],"type":"Point"}},{"type":"Feature","properties":{"display":"东莞","province":"广东省"},"geometry":{"coordinates":[113.739764,22.962524],"type":"Point"}},{"type":"Feature","properties":{"display":"佛山","province":"广东省"},"geometry":{"coordinates":[113.010872,23.013266],"type":"Point"}},{"type":"Feature","properties":{"display":"中山","province":"广东省"},"geometry":{"coordinates":[113.39529,22.548221],"type":"Point"}},{"type":"Feature","properties":{"display":"韶关","province":"广东省"},"geometry":{"coordinates":[113.787112,24.899591],"type":"Point"}},{"type":"Feature","properties":{"display":"深圳","province":"广东省"},"geometry":{"coordinates":[113.941721,22.641985],"type":"Point"}},{"type":"Feature","properties":{"display":"贵阳","province":"贵州省"},"geometry":{"coordinates":[106.724676,26.909253],"type":"Point"}},{"type":"Feature","properties":{"display":"合肥","province":"安徽省"},"geometry":{"coordinates":[117.478005,31.826534],"type":"Point"}},{"type":"Feature","properties":{"display":"黄山","province":"安徽省"},"geometry":{"coordinates":[118.06656,29.916834],"type":"Point"}},{"type":"Feature","properties":{"display":"芜湖","province":"安徽省"},"geometry":{"coordinates":[118.345729,31.152719],"type":"Point"}},{"type":"Feature","properties":{"display":"宣城","province":"安徽省"},"geometry":{"coordinates":[118.879467,30.736176],"type":"Point"}},{"type":"Feature","properties":{"display":"安庆","province":"安徽省"},"geometry":{"coordinates":[116.418317,30.542277],"type":"Point"}},{"type":"Feature","properties":{"display":"铜陵","province":"安徽省"},"geometry":{"coordinates":[117.255534,30.837642],"type":"Point"}},{"type":"Feature","properties":{"display":"淮北","province":"安徽省"},"geometry":{"coordinates":[116.691864,33.712215],"type":"Point"}},{"type":"Feature","properties":{"display":"六安","province":"安徽省"},"geometry":{"coordinates":[116.310904,31.603133],"type":"Point"}},{"type":"Feature","properties":{"display":"滁州","province":"安徽省"},"geometry":{"coordinates":[117.951644,32.598524],"type":"Point"}},{"type":"Feature","properties":{"display":"马鞍山","province":"安徽省"},"geometry":{"coordinates":[118.290768,31.728652],"type":"Point"}},{"type":"Feature","properties":{"display":"淮南","province":"安徽省"},"geometry":{"coordinates":[116.76999,32.308265],"type":"Point"}},{"type":"Feature","properties":{"display":"阜阳","province":"安徽省"},"geometry":{"coordinates":[115.566784,32.901702],"type":"Point"}},{"type":"Feature","properties":{"display":"武汉","province":"湖北省"},"geometry":{"coordinates":[114.278833,30.459634],"type":"Point"}},{"type":"Feature","properties":{"display":"孝感","province":"湖北省"},"geometry":{"coordinates":[113.814623,31.079089],"type":"Point"}},{"type":"Feature","properties":{"display":"岳阳","province":"湖南省"},"geometry":{"coordinates":[113.318907,29.02409],"type":"Point"}},{"type":"Feature","properties":{"display":"郴州","province":"湖南省"},"geometry":{"coordinates":[112.815931,25.734746],"type":"Point"}},{"type":"Feature","properties":{"display":"永州","province":"湖南省"},"geometry":{"coordinates":[111.793429,25.442769],"type":"Point"}},{"type":"Feature","properties":{"display":"扬州","province":"江苏省"},"geometry":{"coordinates":[119.527104,32.588183],"type":"Point"}},{"type":"Feature","properties":{"display":"镇江","province":"江苏省"},"geometry":{"coordinates":[119.543954,32.047935],"type":"Point"}},{"type":"Feature","properties":{"display":"徐州","province":"江苏省"},"geometry":{"coordinates":[117.760647,34.259399],"type":"Point"}},{"type":"Feature","properties":{"display":"南京","province":"江苏省"},"geometry":{"coordinates":[118.761894,31.983297],"type":"Point"}},{"type":"Feature","properties":{"display":"西安","province":"陕西省"},"geometry":{"coordinates":[109.169712,34.206306],"type":"Point"}},{"type":"Feature","properties":{"display":"榆林","province":"陕西省"},"geometry":{"coordinates":[109.815553,38.110839],"type":"Point"}},{"type":"Feature","properties":{"display":"运城","province":"山西省"},"geometry":{"coordinates":[110.910486,35.216075],"type":"Point"}},{"type":"Feature","properties":{"display":"太原","province":"山西省"},"geometry":{"coordinates":[112.380609,37.887449],"type":"Point"}},{"type":"Feature","properties":{"display":"吕梁","province":"山西省"},"geometry":{"coordinates":[111.281147,37.444189],"type":"Point"}},{"type":"Feature","properties":{"display":"忻州","province":"山西省"},"geometry":{"coordinates":[111.644865,39.059194],"type":"Point"}},{"type":"Feature","properties":{"display":"大同","province":"山西省"},"geometry":{"coordinates":[113.736313,39.742595],"type":"Point"}},{"type":"Feature","properties":{"display":"南昌","province":"江西省"},"geometry":{"coordinates":[115.984605,28.651767],"type":"Point"}},{"type":"Feature","properties":{"display":"赣州","province":"江西省"},"geometry":{"coordinates":[115.314427,25.554869],"type":"Point"}},{"type":"Feature","properties":{"display":"杭州","province":"浙江省"},"geometry":{"coordinates":[119.40518,29.883027],"type":"Point"}},{"type":"Feature","properties":{"display":"洛阳","province":"河南省"},"geometry":{"coordinates":[111.929034,34.127388],"type":"Point"}},{"type":"Feature","properties":{"display":"郑州","province":"河南省"},"geometry":{"coordinates":[113.647981,34.608828],"type":"Point"}},{"type":"Feature","properties":{"display":"周口","province":"河南省"},"geometry":{"coordinates":[114.703211,33.784814],"type":"Point"}},{"type":"Feature","properties":{"display":"漯河","province":"河南省"},"geometry":{"coordinates":[113.926163,33.673233],"type":"Point"}},{"type":"Feature","properties":{"display":"驻马店","province":"河南省"},"geometry":{"coordinates":[114.250562,32.962983],"type":"Point"}},{"type":"Feature","properties":{"display":"信阳","province":"河南省"},"geometry":{"coordinates":[115.056896,32.091524],"type":"Point"}},{"type":"Feature","properties":{"display":"新乡","province":"河南省"},"geometry":{"coordinates":[113.904205,35.278776],"type":"Point"}},{"type":"Feature","properties":{"display":"枣庄","province":"山东省"},"geometry":{"coordinates":[117.407611,34.951694],"type":"Point"}},{"type":"Feature","properties":{"display":"德州","province":"山东省"},"geometry":{"coordinates":[116.625721,37.222597],"type":"Point"}},{"type":"Feature","properties":{"display":"福州","province":"福建省"},"geometry":{"coordinates":[119.158908,26.141923],"type":"Point"}},{"type":"Feature","properties":{"display":"龙岩","province":"福建省"},"geometry":{"coordinates":[116.730445,25.272921],"type":"Point"}},{"type":"Feature","properties":{"display":"保定","province":"河北省"},"geometry":{"coordinates":[115.263413,38.979876],"type":"Point"}},{"type":"Feature","properties":{"display":"秦皇岛","province":"河北省"},"geometry":{"coordinates":[119.281096,40.134999],"type":"Point"}},{"type":"Feature","properties":{"display":"张家口","province":"河北省"},"geometry":{"coordinates":[115.071405,40.847464],"type":"Point"}},{"type":"Feature","properties":{"display":"嘉峪关","province":"甘肃省"},"geometry":{"coordinates":[98.152529,39.843228],"type":"Point"}},{"type":"Feature","properties":{"display":"酒泉","province":"甘肃省"},"geometry":{"coordinates":[95.545599,39.989242],"type":"Point"}},{"type":"Feature","properties":{"display":"天水","province":"甘肃省"},"geometry":{"coordinates":[105.880216,34.601569],"type":"Point"}},{"type":"Feature","properties":{"display":"定西","province":"甘肃省"},"geometry":{"coordinates":[104.583402,35.284559],"type":"Point"}},{"type":"Feature","properties":{"display":"兰州","province":"甘肃省"},"geometry":{"coordinates":[103.505018,36.474818],"type":"Point"}},{"type":"Feature","properties":{"display":"武威","province":"甘肃省"},"geometry":{"coordinates":[102.893838,37.642877],"type":"Point"}},{"type":"Feature","properties":{"display":"张掖","province":"甘肃省"},"geometry":{"coordinates":[99.871741,39.097806],"type":"Point"}},{"type":"Feature","properties":{"display":"北京","province":"北京市"},"geometry":{"coordinates":[116.417815,40.295205],"type":"Point"}},{"type":"Feature","properties":{"display":"上海","province":"上海市"},"geometry":{"coordinates":[121.413828,31.088072],"type":"Point"}},{"type":"Feature","properties":{"display":"天津","province":"天津市"},"geometry":{"coordinates":[117.296383,39.027883],"type":"Point"}},{"type":"Feature","properties":{"display":"桂林","province":"广西壮族自治区"},"geometry":{"coordinates":[110.390968,25.338341],"type":"Point"}},{"type":"Feature","properties":{"display":"柳州","province":"广西壮族自治区"},"geometry":{"coordinates":[109.444759,24.490932],"type":"Point"}},{"type":"Feature","properties":{"display":"来宾","province":"广西壮族自治区"},"geometry":{"coordinates":[109.128974,23.67935],"type":"Point"}},{"type":"Feature","properties":{"display":"贵港","province":"广西壮族自治区"},"geometry":{"coordinates":[110.221967,23.374592],"type":"Point"}},{"type":"Feature","properties":{"display":"玉林","province":"广西壮族自治区"},"geometry":{"coordinates":[110.218717,22.518737],"type":"Point"}}]}