{"type":"FeatureCollection","features":[{"type":"Feature","properties":{"name":"湛江","trips":8,"services":"conventional"},"geometry":{"coordinates":[110.382499,21.18979],"type":"Point"}},{"type":"Feature","properties":{"name":"桂林北","trips":2,"services":"conventional"},"geometry":{"coordinates":[110.298186,25.33146],"type":"Point"}},{"type":"Feature","properties":{"name":"北京西","trips":7,"services":"conventional,highspeed"},"geometry":{"coordinates":[116.315103,39.89367],"type":"Point"}},{"type":"Feature","properties":{"name":"湛江西","trips":12,"services":"highspeed"},"geometry":{"coordinates":[110.283847,21.245635],"type":"Point"}},{"type":"Feature","properties":{"name":"小榄","trips":1,"services":"highspeed"},"geometry":{"coordinates":[113.264583,22.650559],"type":"Point"}},{"type":"Feature","properties":{"name":"贵阳","trips":2,"services":"conventional"},"geometry":{"coordinates":[106.698741,26.559901],"type":"Point"}},{"type":"Feature","properties":{"name":"佛山西","trips":1,"services":"highspeed"},"geometry":{"coordinates":[113.028338,23.082031],"type":"Point"}},{"type":"Feature","properties":{"name":"广州南","trips":15,"services":"highspeed"},"geometry":{"coordinates":[113.264038,22.991414],"type":"Point"}},{"type":"Feature","properties":{"name":"合肥南","trips":25,"services":"highspeed"},"geometry":{"coordinates":[117.284875,31.800299],"type":"Point"}},{"type":"Feature","properties":{"name":"汉口","trips":4,"services":"highspeed"},"geometry":{"coordinates":[114.249414,30.621651],"type":"Point"}},{"type":"Feature","properties":{"name":"武汉","trips":2,"services":"highspeed"},"geometry":{"coordinates":[114.418943,30.60985],"type":"Point"}},{"type":"Feature","properties":{"name":"岳阳东","trips":2,"services":"highspeed"},"geometry":{"coordinates":[113.20232,29.36896],"type":"Point"}},{"type":"Feature","properties":{"name":"广州白云","trips":1,"services":"highspeed"},"geometry":{"coordinates":[113.24051,23.194037],"type":"Point"}},{"type":"Feature","properties":{"name":"黄山北","trips":2,"services":"highspeed"},"geometry":{"coordinates":[118.26734,29.818337],"type":"Point"}},{"type":"Feature","properties":{"name":"高邮","trips":2,"services":"highspeed"},"geometry":{"coordinates":[119.500205,32.775665],"type":"Point"}},{"type":"Feature","properties":{"name":"扬州东","trips":1,"services":"highspeed"},"geometry":{"coordinates":[119.52332,32.406613],"type":"Point"}},{"type":"Feature","properties":{"name":"镇江","trips":1,"services":"highspeed"},"geometry":{"coordinates":[119.426989,32.199656],"type":"Point"}},{"type":"Feature","properties":{"name":"西安北","trips":2,"services":"highspeed"},"geometry":{"coordinates":[108.934025,34.377668],"type":"Point"}},{"type":"Feature","properties":{"name":"永济北","trips":2,"services":"highspeed"},"geometry":{"coordinates":[110.419237,35.028299],"type":"Point"}},{"type":"Feature","properties":{"name":"杭州东","trips":2,"services":"highspeed"},"geometry":{"coordinates":[120.208203,30.293549],"type":"Point"}},{"type":"Feature","properties":{"name":"南昌西","trips":1,"services":"highspeed"},"geometry":{"coordinates":[115.787711,28.625729],"type":"Point"}},{"type":"Feature","properties":{"name":"南昌","trips":1,"services":"conventional"},"geometry":{"coordinates":[115.914825,28.665286],"type":"Point"}},{"type":"Feature","properties":{"name":"郴州","trips":1,"services":"conventional"},"geometry":{"coordinates":[113.02778,25.811244],"type":"Point"}},{"type":"Feature","properties":{"name":"郴州西","trips":1,"services":"highspeed"},"geometry":{"coordinates":[112.964531,25.739132],"type":"Point"}},{"type":"Feature","properties":{"name":"韶关","trips":2,"services":"highspeed"},"geometry":{"coordinates":[113.508958,24.753512],"type":"Point"}},{"type":"Feature","properties":{"name":"合肥","trips":14,"services":"conventional,highspeed"},"geometry":{"coordinates":[117.311886,31.887866],"type":"Point"}},{"type":"Feature","properties":{"name":"郑州","trips":2,"services":"conventional"},"geometry":{"coordinates":[113.653666,34.747508],"type":"Point"}},{"type":"Feature","properties":{"name":"洛阳","trips":2,"services":"conventional"},"geometry":{"coordinates":[112.429942,34.687322],"type":"Point"}},{"type":"Feature","properties":{"name":"巩义","trips":1,"services":"conventional"},"geometry":{"coordinates":[112.975123,34.761211],"type":"Point"}},{"type":"Feature","properties":{"name":"巩义南","trips":1,"services":"highspeed"},"geometry":{"coordinates":[112.910562,34.671686],"type":"Point"}},{"type":"Feature","properties":{"name":"郑州东","trips":2,"services":"highspeed"},"geometry":{"coordinates":[113.773253,34.760194],"type":"Point"}},{"type":"Feature","properties":{"name":"芜湖","trips":2,"services":"highspeed"},"geometry":{"coordinates":[118.386002,31.349784],"type":"Point"}},{"type":"Feature","properties":{"name":"宣城","trips":2,"services":"highspeed"},"geometry":{"coordinates":[118.769307,30.949699],"type":"Point"}},{"type":"Feature","properties":{"name":"安庆","trips":2,"services":"highspeed"},"geometry":{"coordinates":[117.060052,30.551504],"type":"Point"}},{"type":"Feature","properties":{"name":"铜陵","trips":2,"services":"highspeed"},"geometry":{"coordinates":[117.856278,30.921185],"type":"Point"}},{"type":"Feature","properties":{"name":"虎门","trips":1,"services":"highspeed"},"geometry":{"coordinates":[113.668289,22.863216],"type":"Point"}},{"type":"Feature","properties":{"name":"东莞","trips":1,"services":"highspeed"},"geometry":{"coordinates":[113.85442,23.091229],"type":"Point"}},{"type":"Feature","properties":{"name":"深圳","trips":1,"services":"highspeed"},"geometry":{"coordinates":[114.112095,22.534276],"type":"Point"}},{"type":"Feature","properties":{"name":"枣庄","trips":1,"services":"highspeed"},"geometry":{"coordinates":[117.300373,34.781884],"type":"Point"}},{"type":"Feature","properties":{"name":"徐州","trips":1,"services":"conventional"},"geometry":{"coordinates":[117.201762,34.266395],"type":"Point"}},{"type":"Feature","properties":{"name":"淮北","trips":2,"services":"conventional,highspeed"},"geometry":{"coordinates":[116.797149,33.96902],"type":"Point"}},{"type":"Feature","properties":{"name":"上海南","trips":1,"services":"highspeed"},"geometry":{"coordinates":[121.424884,31.155012],"type":"Point"}},{"type":"Feature","properties":{"name":"上海虹桥","trips":2,"services":"highspeed"},"geometry":{"coordinates":[121.3162,31.195978],"type":"Point"}},{"type":"Feature","properties":{"name":"上海","trips":1,"services":"conventional"},"geometry":{"coordinates":[121.451165,31.251557],"type":"Point"}},{"type":"Feature","properties":{"name":"六安","trips":2,"services":"conventional,highspeed"},"geometry":{"coordinates":[116.494464,31.716997],"type":"Point"}},{"type":"Feature","properties":{"name":"北京南","trips":7,"services":"highspeed"},"geometry":{"coordinates":[116.372399,39.863483],"type":"Point"}},{"type":"Feature","properties":{"name":"合肥北城","trips":1,"services":"highspeed"},"geometry":{"coordinates":[117.2467,32.065354],"type":"Point"}},{"type":"Feature","properties":{"name":"泾县","trips":2,"services":"highspeed"},"geometry":{"coordinates":[118.383492,30.660715],"type":"Point"}},{"type":"Feature","properties":{"name":"福州","trips":2,"services":"highspeed"},"geometry":{"coordinates":[119.315632,26.116809],"type":"Point"}},{"type":"Feature","properties":{"name":"古田会址","trips":2,"services":"highspeed"},"geometry":{"coordinates":[116.767615,25.187087],"type":"Point"}},{"type":"Feature","properties":{"name":"长汀南","trips":2,"services":"highspeed"},"geometry":{"coordinates":[116.352795,25.769299],"type":"Point"}},{"type":"Feature","properties":{"name":"瑞金","trips":2,"services":"highspeed"},"geometry":{"coordinates":[116.051109,25.86656],"type":"Point"}},{"type":"Feature","properties":{"name":"于都","trips":2,"services":"highspeed"},"geometry":{"coordinates":[115.411487,25.978581],"type":"Point"}},{"type":"Feature","properties":{"name":"赣州","trips":1,"services":"highspeed"},"geometry":{"coordinates":[114.960344,25.822384],"type":"Point"}},{"type":"Feature","properties":{"name":"赣州西","trips":1,"services":"highspeed"},"geometry":{"coordinates":[114.810917,25.823297],"type":"Point"}},{"type":"Feature","properties":{"name":"广州东","trips":1,"services":"highspeed"},"geometry":{"coordinates":[113.319621,23.153652],"type":"Point"}},{"type":"Feature","properties":{"name":"全椒","trips":1,"services":"highspeed"},"geometry":{"coordinates":[118.277426,32.062341],"type":"Point"}},{"type":"Feature","properties":{"name":"滁州北","trips":1,"services":"conventional"},"geometry":{"coordinates":[118.322537,32.310393],"type":"Point"}},{"type":"Feature","properties":{"name":"马鞍山","trips":2,"services":"conventional"},"geometry":{"coordinates":[118.496846,31.709491],"type":"Point"}},{"type":"Feature","properties":{"name":"寿县","trips":2,"services":"highspeed"},"geometry":{"coordinates":[116.800552,32.595076],"type":"Point"}},{"type":"Feature","properties":{"name":"颍上北","trips":1,"services":"highspeed"},"geometry":{"coordinates":[116.205896,32.68115],"type":"Point"}},{"type":"Feature","properties":{"name":"颍上","trips":1,"services":"conventional"},"geometry":{"coordinates":[116.301382,32.741398],"type":"Point"}},{"type":"Feature","properties":{"name":"阜阳","trips":1,"services":"conventional"},"geometry":{"coordinates":[115.863962,32.91667],"type":"Point"}},{"type":"Feature","properties":{"name":"阜阳西","trips":1,"services":"highspeed"},"geometry":{"coordinates":[115.747628,32.884941],"type":"Point"}},{"type":"Feature","properties":{"name":"周口东","trips":1,"services":"highspeed"},"geometry":{"coordinates":[114.740719,33.646802],"type":"Point"}},{"type":"Feature","properties":{"name":"周口","trips":1,"services":"conventional"},"geometry":{"coordinates":[114.659788,33.578908],"type":"Point"}},{"type":"Feature","properties":{"name":"漯河","trips":1,"services":"conventional"},"geometry":{"coordinates":[114.037324,33.572327],"type":"Point"}},{"type":"Feature","properties":{"name":"漯河西","trips":1,"services":"highspeed"},"geometry":{"coordinates":[113.957598,33.574368],"type":"Point"}},{"type":"Feature","properties":{"name":"驻马店西","trips":1,"services":"highspeed"},"geometry":{"coordinates":[113.972637,33.002557],"type":"Point"}},{"type":"Feature","properties":{"name":"驻马店","trips":1,"services":"conventional"},"geometry":{"coordinates":[114.036844,32.98101],"type":"Point"}},{"type":"Feature","properties":{"name":"信阳","trips":1,"services":"conventional"},"geometry":{"coordinates":[114.077327,32.130793],"type":"Point"}},{"type":"Feature","properties":{"name":"信阳东","trips":1,"services":"highspeed"},"geometry":{"coordinates":[114.154387,32.145915],"type":"Point"}},{"type":"Feature","properties":{"name":"孝感北","trips":1,"services":"highspeed"},"geometry":{"coordinates":[114.215986,31.588187],"type":"Point"}},{"type":"Feature","properties":{"name":"孝感东","trips":1,"services":"highspeed"},"geometry":{"coordinates":[113.942485,30.935775],"type":"Point"}},{"type":"Feature","properties":{"name":"北京丰台","trips":9,"services":"conventional,highspeed"},"geometry":{"coordinates":[116.295342,39.849995],"type":"Point"}},{"type":"Feature","properties":{"name":"清河","trips":3,"services":"highspeed"},"geometry":{"coordinates":[116.309093,40.040003],"type":"Point"}},{"type":"Feature","properties":{"name":"古北口","trips":2,"services":"highspeed"},"geometry":{"coordinates":[117.135282,40.690579],"type":"Point"}},{"type":"Feature","properties":{"name":"天津","trips":1,"services":"highspeed"},"geometry":{"coordinates":[117.203684,39.135752],"type":"Point"}},{"type":"Feature","properties":{"name":"天津西","trips":1,"services":"highspeed"},"geometry":{"coordinates":[117.15712,39.157355],"type":"Point"}},{"type":"Feature","properties":{"name":"雄安","trips":1,"services":"highspeed"},"geometry":{"coordinates":[116.154145,39.055576],"type":"Point"}},{"type":"Feature","properties":{"name":"白洋淀","trips":1,"services":"highspeed"},"geometry":{"coordinates":[115.868548,39.068643],"type":"Point"}},{"type":"Feature","properties":{"name":"北京","trips":1,"services":"conventional"},"geometry":{"coordinates":[116.421013,39.901117],"type":"Point"}},{"type":"Feature","properties":{"name":"山海关","trips":2,"services":"conventional"},"geometry":{"coordinates":[119.761904,39.998599],"type":"Point"}},{"type":"Feature","properties":{"name":"新乡","trips":2,"services":"conventional"},"geometry":{"coordinates":[113.853557,35.306365],"type":"Point"}},{"type":"Feature","properties":{"name":"卫辉","trips":1,"services":"conventional"},"geometry":{"coordinates":[114.055472,35.431857],"type":"Point"}},{"type":"Feature","properties":{"name":"新乡东","trips":1,"services":"highspeed"},"geometry":{"coordinates":[113.972933,35.314708],"type":"Point"}},{"type":"Feature","properties":{"name":"祁阳","trips":2,"services":"highspeed"},"geometry":{"coordinates":[111.826098,26.61247],"type":"Point"}},{"type":"Feature","properties":{"name":"永州","trips":3,"services":"conventional,highspeed"},"geometry":{"coordinates":[111.565525,26.457663],"type":"Point"}},{"type":"Feature","properties":{"name":"零陵","trips":1,"services":"conventional"},"geometry":{"coordinates":[111.575494,26.226133],"type":"Point"}},{"type":"Feature","properties":{"name":"柳州","trips":2,"services":"highspeed"},"geometry":{"coordinates":[109.383325,24.310585],"type":"Point"}},{"type":"Feature","properties":{"name":"来宾北","trips":1,"services":"highspeed"},"geometry":{"coordinates":[109.240982,23.75456],"type":"Point"}},{"type":"Feature","properties":{"name":"来宾","trips":1,"services":"conventional"},"geometry":{"coordinates":[109.237249,23.732471],"type":"Point"}},{"type":"Feature","properties":{"name":"贵港","trips":2,"services":"conventional,highspeed"},"geometry":{"coordinates":[109.609059,23.102847],"type":"Point"}},{"type":"Feature","properties":{"name":"玉林","trips":2,"services":"conventional,highspeed"},"geometry":{"coordinates":[110.15236,22.600073],"type":"Point"}},{"type":"Feature","properties":{"name":"深圳东","trips":1,"services":"conventional"},"geometry":{"coordinates":[114.114413,22.604916],"type":"Point"}},{"type":"Feature","properties":{"name":"深圳北","trips":1,"services":"highspeed"},"geometry":{"coordinates":[114.023947,22.612037],"type":"Point"}},{"type":"Feature","properties":{"name":"合肥西","trips":1,"services":"highspeed"},"geometry":{"coordinates":[117.228256,31.873908],"type":"Point"}},{"type":"Feature","properties":{"name":"大兴机场","trips":1,"services":"highspeed"},"geometry":{"coordinates":[116.410556,39.513361],"type":"Point"}},{"type":"Feature","properties":{"name":"太原","trips":2,"services":"conventional"},"geometry":{"coordinates":[112.581832,37.860038],"type":"Point"}},{"type":"Feature","properties":{"name":"蔡家崖","trips":1,"services":"conventional"},"geometry":{"coordinates":[111.015464,38.493298],"type":"Point"}},{"type":"Feature","properties":{"name":"神木","trips":1,"services":"conventional"},"geometry":{"coordinates":[110.449097,38.936727],"type":"Point"}},{"type":"Feature","properties":{"name":"府谷","trips":1,"services":"conventional"},"geometry":{"coordinates":[111.039572,39.050844],"type":"Point"}},{"type":"Feature","properties":{"name":"岢岚","trips":1,"services":"conventional"},"geometry":{"coordinates":[111.574927,38.7179],"type":"Point"}},{"type":"Feature","properties":{"name":"宁武","trips":2,"services":"conventional"},"geometry":{"coordinates":[112.312801,39.005571],"type":"Point"}},{"type":"Feature","properties":{"name":"大同","trips":1,"services":"conventional"},"geometry":{"coordinates":[113.296338,40.119098],"type":"Point"}},{"type":"Feature","properties":{"name":"大同南","trips":1,"services":"highspeed"},"geometry":{"coordinates":[113.358116,40.043557],"type":"Point"}},{"type":"Feature","properties":{"name":"北京北","trips":1,"services":"highspeed"},"geometry":{"coordinates":[116.346187,39.945906],"type":"Point"}},{"type":"Feature","properties":{"name":"天水","trips":2,"services":"conventional"},"geometry":{"coordinates":[105.894925,34.567103],"type":"Point"}},{"type":"Feature","properties":{"name":"甘谷","trips":2,"services":"conventional"},"geometry":{"coordinates":[105.328407,34.763922],"type":"Point"}},{"type":"Feature","properties":{"name":"武山","trips":1,"services":"conventional"},"geometry":{"coordinates":[104.916722,34.722188],"type":"Point"}},{"type":"Feature","properties":{"name":"陇西","trips":1,"services":"conventional"},"geometry":{"coordinates":[104.702298,34.953181],"type":"Point"}},{"type":"Feature","properties":{"name":"定西","trips":1,"services":"conventional"},"geometry":{"coordinates":[104.622593,35.592686],"type":"Point"}},{"type":"Feature","properties":{"name":"定西北","trips":1,"services":"highspeed"},"geometry":{"coordinates":[104.583428,35.606807],"type":"Point"}},{"type":"Feature","properties":{"name":"兰州西","trips":1,"services":"highspeed"},"geometry":{"coordinates":[103.749284,36.067584],"type":"Point"}},{"type":"Feature","properties":{"name":"兰州","trips":1,"services":"conventional"},"geometry":{"coordinates":[103.848506,36.034178],"type":"Point"}},{"type":"Feature","properties":{"name":"武威","trips":3,"services":"conventional"},"geometry":{"coordinates":[102.622181,37.903693],"type":"Point"}},{"type":"Feature","properties":{"name":"武威南","trips":1,"services":"conventional"},"geometry":{"coordinates":[102.735528,37.815067],"type":"Point"}},{"type":"Feature","properties":{"name":"张掖","trips":1,"services":"conventional"},"geometry":{"coordinates":[100.518068,38.973546],"type":"Point"}},{"type":"Feature","properties":{"name":"张掖西","trips":1,"services":"highspeed"},"geometry":{"coordinates":[100.426555,38.922502],"type":"Point"}},{"type":"Feature","properties":{"name":"酒泉南","trips":1,"services":"highspeed"},"geometry":{"coordinates":[98.535075,39.700635],"type":"Point"}},{"type":"Feature","properties":{"name":"酒泉","trips":1,"services":"conventional"},"geometry":{"coordinates":[98.450933,39.644551],"type":"Point"}},{"type":"Feature","properties":{"name":"嘉峪关","trips":1,"services":"conventional"},"geometry":{"coordinates":[98.253844,39.763899],"type":"Point"}},{"type":"Feature","properties":{"name":"嘉峪关南","trips":1,"services":"highspeed"},"geometry":{"coordinates":[98.309248,39.716708],"type":"Point"}},{"type":"Feature","properties":{"name":"敦煌","trips":1,"services":"highspeed"},"geometry":{"coordinates":[94.783411,40.167847],"type":"Point"}},{"type":"Feature","properties":{"name":"南京南","trips":2,"services":"highspeed"},"geometry":{"coordinates":[118.793052,31.970797],"type":"Point"}},{"type":"Feature","properties":{"name":"张家口","trips":1,"services":"conventional"},"geometry":{"coordinates":[114.876614,40.749518],"type":"Point"}},{"type":"Feature","properties":{"name":"宣化北","trips":1,"services":"highspeed"},"geometry":{"coordinates":[115.042534,40.631614],"type":"Point"}},{"type":"Feature","properties":{"name":"广州","trips":2,"services":"highspeed"},"geometry":{"coordinates":[113.252264,23.152623],"type":"Point"}},{"type":"Feature","properties":{"name":"湛江北","trips":1,"services":"highspeed"},"geometry":{"coordinates":[110.353322,21.221058],"type":"Point"}},{"type":"Feature","properties":{"name":"德州","trips":1,"services":"conventional"},"geometry":{"coordinates":[116.282671,37.448666],"type":"Point"}},{"type":"Feature","properties":{"name":"德州东","trips":1,"services":"highspeed"},"geometry":{"coordinates":[116.455821,37.408934],"type":"Point"}}]}